{"type": "FeatureCollection", "features": [{"type": "Feature", "id": 11482418659, "geometry": {"type": "Point", "coordinates": [18.1796972, 45.1784521]}, "properties": {"id": "node/11482418659", "osm_type": "node", "osm_id": 11482418659, "aeroway": "aerodrome", "name": "Ranč Ramarin"}}, {"type": "Feature", "id": 12288191925, "geometry": {"type": "Point", "coordinates": [13.6100652, 45.2184187]}, "properties": {"id": "node/12288191925", "osm_type": "node", "osm_id": 12288191925, "aeroway": "aerodrome", "name": "Poreč-Škagacer Airfield"}}, {"type": "Feature", "id": 13787451324, "geometry": {"type": "Point", "coordinates": [17.8502733, 45.7304948]}, "properties": {"id": "node/13787451324", "osm_type": "node", "osm_id": 13787451324, "aeroway": "aerodrome", "name": "USS Čađavica"}}, {"type": "Feature", "id": 13852697139, "geometry": {"type": "Point", "coordinates": [17.2057275, 45.9968261]}, "properties": {"id": "node/13852697139", "osm_type": "node", "osm_id": 13852697139, "aeroway": "aerodrome", "name": "Ravnice Airfield"}}, {"type": "Feature", "id": null, "geometry": {"type": "Point", "coordinates": [18.6369255375, 45.54273608333333]}, "properties": {"id": "way/16134212", "osm_type": "way", "osm_id": 16134212, "aeroway": "aerodrome", "name": "Osječki sportski aerodrom", "icao": "LDOC"}}, {"type": "Feature", "id": null, "geometry": {"type": "Point", "coordinates": [16.672150281944443, 43.70087195]}, "properties": {"id": "way/39207385", "osm_type": "way", "osm_id": 39207385, "aeroway": "aerodrome", "name": "Sportski aerodrom Sinj", "icao": "LDSS"}}, {"type": "Feature", "id": null, "geometry": {"type": "Point", "coordinates": [14.572754658823529, 45.216018056862744]}, "properties": {"id": "way/93421119", "osm_type": "way", "osm_id": 93421119, "aeroway": "aerodrome", "name": "Zračna luka Rijeka", "icao": "LDRI", "iata": "RJK", "aerodrome_type": "public"}}, {"type": "Feature", "id": null, "geometry": {"type": "Point", "coordinates": [16.67831701304348, 43.28664355217391]}, "properties": {"id": "way/94980708", "osm_type": "way", "osm_id": 94980708, "aeroway": "aerodrome", "name": "Zračna luka Brač", "icao": "LDSB", "iata": "BWK", "aerodrome_type": "public"}}, {"type": "Feature", "id": null, "geometry": {"type": "Point", "coordinates": [16.63275648947368, 43.18136971578947]}, "properties": {"id": "way/100269191", "osm_type": "way", "osm_id": 100269191, "aeroway": "aerodrome", "name": "Sportski aerodrom Hvar", "icao": "LDSH"}}, {"type": "Feature", "id": null, "geometry": {"type": "Point", "coordinates": [16.069257662937062, 45.74034968951049]}, "properties": {"id": "way/142163337", "osm_type": "way", "osm_id": 142163337, "aeroway": "aerodrome", "name": "Zračna luka Franjo Tuđman", "icao": "LDZA", "iata": "ZAG", "aerodrome_type": "public"}}, {"type": "Feature", "id": null, "geometry": {"type": "Point", "coordinates": [16.29588455, 43.535848190476194]}, "properties": {"id": "way/145263173", "osm_type": "way", "osm_id": 145263173, "aeroway": "aerodrome", "name": "Zračna luka Sveti Jeronim", "icao": "LDSP", "iata": "SPU", "aerodrome_type": "public"}}, {"type": "Feature", "id": null, "geometry": {"type": "Point", "coordinates": [13.920150255932203, 44.89658599576271]}, "properties": {"id": "way/158049110", "osm_type": "way", "osm_id": 158049110, "aeroway": "aerodrome", "name": "Zračna luka Pula", "icao": "LDPL", "iata": "PUY", "aerodrome_type": "public"}}, {"type": "Feature", "id": null, "geometry": {"type": "Point", "coordinates": [13.629609183870967, 45.1404034]}, "properties": {"id": "way/159246019", "osm_type": "way", "osm_id": 159246019, "aeroway": "aerodrome", "name": "Zračna luka Vrsar", "icao": "LDPV"}}, {"type": "Feature", "id": null, "geometry": {"type": "Point", "coordinates": [16.382020755, 46.2960774]}, "properties": {"id": "way/184818841", "osm_type": "way", "osm_id": 184818841, "aeroway": "aerodrome", "name": "Zračno pristanište Varaždin", "icao": "LDVA"}}, {"type": "Feature", "id": null, "geometry": {"type": "Point", "coordinates": [18.262250201052634, 42.56222880421053]}, "properties": {"id": "way/209996074", "osm_type": "way", "osm_id": 209996074, "aeroway": "aerodrome", "name": "Zračna luka Ruđer Bošković", "icao": "LDDU", "iata": "DBV"}}, {"type": "Feature", "id": null, "geometry": {"type": "Point", "coordinates": [16.835250128571428, 45.86038193809524]}, "properties": {"id": "way/217851492", "osm_type": "way", "osm_id": 217851492, "aeroway": "aerodrome", "name": "Zračno pristanište Bjelovar", "icao": "LDZJ"}}, {"type": "Feature", "id": null, "geometry": {"type": "Point", "coordinates": [16.835020315384615, 46.213065761538466]}, "properties": {"id": "way/223902295", "osm_type": "way", "osm_id": 223902295, "aeroway": "aerodrome", "name": "Športsko uzletište Danica", "icao": "LDVK"}}, {"type": "Feature", "id": null, "geometry": {"type": "Point", "coordinates": [15.2840552, 44.84836087857143]}, "properties": {"id": "way/228212013", "osm_type": "way", "osm_id": 228212013, "aeroway": "aerodrome", "name": "Zračno pristanište Otočac", "icao": "LDRO"}}, {"type": "Feature", "id": null, "geometry": {"type": "Point", "coordinates": [14.507247337499999, 45.379420295833334]}, "properties": {"id": "way/228741357", "osm_type": "way", "osm_id": 228741357, "aeroway": "aerodrome", "name": "Zračna luka Grobničko polje", "icao": "LDRG"}}, {"type": "Feature", "id": null, "geometry": {"type": "Point", "coordinates": [16.498959444444445, 45.82194037777778]}, "properties": {"id": "way/235637605", "osm_type": "way", "osm_id": 235637605, "aeroway": "aerodrome", "name": "Aerodrom Zvekovac", "icao": "LDZE"}}, {"type": "Feature", "id": null, "geometry": {"type": "Point", "coordinates": [17.03307393, 45.55846438]}, "properties": {"id": "way/235657296", "osm_type": "way", "osm_id": 235657296, "aeroway": "aerodrome", "name": "Aerodom Daruvar Blagorodovac", "icao": "LDVD"}}, {"type": "Feature", "id": null, "geometry": {"type": "Point", "coordinates": [17.98809218888889, 45.15638988333333]}, "properties": {"id": "way/235662869", "osm_type": "way", "osm_id": 235662869, "aeroway": "aerodrome", "name": "Sportski aerodrom Jelas", "icao": "LDOR"}}, {"type": "Feature", "id": null, "geometry": {"type": "Point", "coordinates": [15.85163255, 45.76830274666667]}, "properties": {"id": "way/239203118", "osm_type": "way", "osm_id": 239203118, "aeroway": "aerodrome", "name": "Zračno pristanište Lučko", "icao": "LDZL"}}, {"type": "Feature", "id": null, "geometry": {"type": "Point", "coordinates": [17.21223925, 45.5850431875]}, "properties": {"id": "way/244674740", "osm_type": "way", "osm_id": 244674740, "aeroway": "aerodrome", "name": "Aerodrom Daruvar", "icao": "LDVR"}}, {"type": "Feature", "id": null, "geometry": {"type": "Point", "coordinates": [14.392484036666668, 44.567906973333336]}, "properties": {"id": "way/244676073", "osm_type": "way", "osm_id": 244676073, "aeroway": "aerodrome", "name": "Aerodrom Mali Lošinj", "icao": "LDLO", "iata": "LSZ"}}, {"type": "Feature", "id": null, "geometry": {"type": "Point", "coordinates": [18.963529914285715, 45.384906582142854]}, "properties": {"id": "way/244676327", "osm_type": "way", "osm_id": 244676327, "aeroway": "aerodrome", "name": "Sportski aerodrom Vukovar", "icao": "LDOB"}}, {"type": "Feature", "id": null, "geometry": {"type": "Point", "coordinates": [18.807333007317073, 45.46516758292683]}, "properties": {"id": "way/244676676", "osm_type": "way", "osm_id": 244676676, "aeroway": "aerodrome", "name": "Zračna luka Osijek", "icao": "LDOS", "iata": "OSI", "aerodrome_type": "public"}}, {"type": "Feature", "id": null, "geometry": {"type": "Point", "coordinates": [13.903675731578948, 44.84400837894737]}, "properties": {"id": "way/244677547", "osm_type": "way", "osm_id": 244677547, "aeroway": "aerodrome", "name": "Aerodrom Medulin", "icao": "LDPM"}}, {"type": "Feature", "id": null, "geometry": {"type": "Point", "coordinates": [14.243421664285714, 44.62993394642857]}, "properties": {"id": "way/244678899", "osm_type": "way", "osm_id": 244678899, "aeroway": "aerodrome", "name": "Aerodrom Unije", "icao": "LDPN"}}, {"type": "Feature", "id": null, "geometry": {"type": "Point", "coordinates": [16.9636929375, 45.786892175]}, "properties": {"id": "way/251641996", "osm_type": "way", "osm_id": 251641996, "aeroway": "aerodrome", "name": "Zračno pristanište Nova Rača"}}, {"type": "Feature", "id": null, "geometry": {"type": "Point", "coordinates": [15.85886829090909, 46.012862963636366]}, "properties": {"id": "way/324758943", "osm_type": "way", "osm_id": 324758943, "aeroway": "aerodrome", "name": "Aerodrom Zabok-Gubaševo", "icao": "LDZK"}}, {"type": "Feature", "id": null, "geometry": {"type": "Point", "coordinates": [15.346491850724638, 44.10098866811594]}, "properties": {"id": "way/372828272", "osm_type": "way", "osm_id": 372828272, "aeroway": "aerodrome", "name": "Zračna luka Zadar", "icao": "LDZD", "iata": "ZAD", "aerodrome_type": "public"}}, {"type": "Feature", "id": null, "geometry": {"type": "Point", "coordinates": [18.788825105263157, 45.730884947368416]}, "properties": {"id": "way/411060311", "osm_type": "way", "osm_id": 411060311, "aeroway": "aerodrome", "name": "Poljoprivredno letjelište Mirkovac"}}, {"type": "Feature", "id": null, "geometry": {"type": "Point", "coordinates": [15.793420585714287, 45.617737723809526]}, "properties": {"id": "way/588645965", "osm_type": "way", "osm_id": 588645965, "aeroway": "aerodrome", "name": "Aerodrom Pisarovina", "icao": "LDZR"}}, {"type": "Feature", "id": null, "geometry": {"type": "Point", "coordinates": [16.486231566666667, 45.46624745]}, "properties": {"id": "way/597275354", "osm_type": "way", "osm_id": 597275354, "aeroway": "aerodrome", "name": "Aerodrom Sisak", "icao": "LDZS"}}, {"type": "Feature", "id": null, "geometry": {"type": "Point", "coordinates": [16.662934055555557, 45.748995622222225]}, "properties": {"id": "way/847793927", "osm_type": "way", "osm_id": 847793927, "aeroway": "aerodrome", "name": "Čazma - Grabovnica", "icao": "LDZC"}}, {"type": "Feature", "id": null, "geometry": {"type": "Point", "coordinates": [16.38644553125, 46.3636619375]}, "properties": {"id": "way/1138285132", "osm_type": "way", "osm_id": 1138285132, "aeroway": "aerodrome", "name": "Letjelište Nedelišće"}}, {"type": "Feature", "id": null, "geometry": {"type": "Point", "coordinates": [16.344268014285714, 45.71782608571429]}, "properties": {"id": "way/1151931795", "osm_type": "way", "osm_id": 1151931795, "aeroway": "aerodrome", "name": "Zračno pristanište Ivanić", "icao": "LDZI"}}, {"type": "Feature", "id": null, "geometry": {"type": "Point", "coordinates": [16.123123149999998, 45.647895812499996]}, "properties": {"id": "way/1182519722", "osm_type": "way", "osm_id": 1182519722, "aeroway": "aerodrome", "name": "Letjelište Buševec", "icao": "LDZB"}}, {"type": "Feature", "id": null, "geometry": {"type": "Point", "coordinates": [17.28194032, 45.94733842]}, "properties": {"id": "way/1327380570", "osm_type": "way", "osm_id": 1327380570, "aeroway": "aerodrome", "name": "Sportski aerodrom Pitomača"}}, {"type": "Feature", "id": null, "geometry": {"type": "Point", "coordinates": [17.327367966666667, 45.84436826666667]}, "properties": {"id": "way/1332449728", "osm_type": "way", "osm_id": 1332449728, "aeroway": "aerodrome", "name": "Aerodrom Virovitica"}}, {"type": "Feature", "id": null, "geometry": {"type": "Point", "coordinates": [17.17939621111111, 45.50493872222222]}, "properties": {"id": "way/1426287220", "osm_type": "way", "osm_id": 1426287220, "aeroway": "aerodrome", "name": "Zračno pristanište Badljevina - Pakrac"}}, {"type": "Feature", "id": null, "geometry": {"type": "Point", "coordinates": [16.646110933333336, 45.52721645]}, "properties": {"id": "way/1465324057", "osm_type": "way", "osm_id": 1465324057, "aeroway": "aerodrome", "name": "Voloder"}}, {"type": "Feature", "id": null, "geometry": {"type": "Point", "coordinates": [16.271531576923078, 45.45651400769231]}, "properties": {"id": "way/1465608423", "osm_type": "way", "osm_id": 1465608423, "aeroway": "aerodrome", "name": "Sportsko uzletište Mlinski Kamen"}}, {"type": "Feature", "id": null, "geometry": {"type": "Point", "coordinates": [16.359272475, 45.6497495125]}, "properties": {"id": "way/1465669342", "osm_type": "way", "osm_id": 1465669342, "aeroway": "aerodrome", "name": "Topolje (closed)"}}, {"type": "Feature", "id": null, "geometry": {"type": "Point", "coordinates": [16.30321318, 45.86243328]}, "properties": {"id": "way/1465810973", "osm_type": "way", "osm_id": 1465810973, "aeroway": "aerodrome", "name": "Štakorovec (closed)"}}]}