{"type": "FeatureCollection", "features": [{"type": "Feature", "id": 1, "geometry": {"type": "Point", "coordinates": [14.1302866, 42.5008782]}, "properties": {"id": 1, "osm_type": "way", "osm_id": 23064425, "name": "Stadio Comunale \"Aldo Mastrangelo\""}}, {"type": "Feature", "id": 2, "geometry": {"type": "Point", "coordinates": [13.6765499, 43.1964134]}, "properties": {"id": 2, "osm_type": "way", "osm_id": 23175168}}, {"type": "Feature", "id": 3, "geometry": {"type": "Point", "coordinates": [18.4085822, 43.8737485]}, "properties": {"id": 3, "osm_type": "way", "osm_id": 23480568, "name": "Olimpijski stadion Koševo – Asim Ferhatović-Hase"}}, {"type": "Feature", "id": 4, "geometry": {"type": "Point", "coordinates": [13.5296717, 43.6167636]}, "properties": {"id": 4, "osm_type": "way", "osm_id": 24048379, "name": "Stadio Dorico"}}, {"type": "Feature", "id": 5, "geometry": {"type": "Point", "coordinates": [13.5262453, 43.5642727]}, "properties": {"id": 5, "osm_type": "way", "osm_id": 24513565, "name": "Stadio del Conero"}}, {"type": "Feature", "id": 6, "geometry": {"type": "Point", "coordinates": [14.136479, 42.3437133]}, "properties": {"id": 6, "osm_type": "way", "osm_id": 24906504, "name": "Stadio Guido Angelini"}}, {"type": "Feature", "id": 7, "geometry": {"type": "Point", "coordinates": [18.3671343, 43.8293587]}, "properties": {"id": 7, "osm_type": "way", "osm_id": 27298226, "name": "Gradski stadion SRC Slavija"}}, {"type": "Feature", "id": 8, "geometry": {"type": "Point", "coordinates": [15.9429122, 45.7825842]}, "properties": {"id": 8, "osm_type": "way", "osm_id": 28051669, "name": "Atletski stadion Mladost"}}, {"type": "Feature", "id": 9, "geometry": {"type": "Point", "coordinates": [19.2444642, 42.4317487]}, "properties": {"id": 9, "osm_type": "way", "osm_id": 28131647, "name": "Zabjelo Stadium"}}, {"type": "Feature", "id": 10, "geometry": {"type": "Point", "coordinates": [19.2696244, 42.4439132]}, "properties": {"id": 10, "osm_type": "way", "osm_id": 28131988, "name": "Stadion Malih Sportova"}}, {"type": "Feature", "id": 11, "geometry": {"type": "Point", "coordinates": [19.2573178, 42.4313209]}, "properties": {"id": 11, "osm_type": "way", "osm_id": 28139599, "name": "Arena"}}, {"type": "Feature", "id": 12, "geometry": {"type": "Point", "coordinates": [18.6613435, 44.541726]}, "properties": {"id": 12, "osm_type": "way", "osm_id": 28176983, "name": "Gradski stadion Tušanj"}}, {"type": "Feature", "id": 13, "geometry": {"type": "Point", "coordinates": [19.1266222, 45.762425]}, "properties": {"id": 13, "osm_type": "way", "osm_id": 28379899, "name": "ФК Раднички"}}, {"type": "Feature", "id": 14, "geometry": {"type": "Point", "coordinates": [19.1086807, 45.7842591]}, "properties": {"id": 14, "osm_type": "way", "osm_id": 28402267, "name": "ФК Жак"}}, {"type": "Feature", "id": 15, "geometry": {"type": "Point", "coordinates": [14.229559, 42.4553797]}, "properties": {"id": 15, "osm_type": "way", "osm_id": 28738491, "name": "Stadio Adriatico-Giovanni Cornacchia"}}, {"type": "Feature", "id": 16, "geometry": {"type": "Point", "coordinates": [16.0178955, 45.8187963]}, "properties": {"id": 16, "osm_type": "way", "osm_id": 29574254, "name": "Stadion Maksimir"}}, {"type": "Feature", "id": 17, "geometry": {"type": "Point", "coordinates": [16.0730924, 45.7239634]}, "properties": {"id": 17, "osm_type": "way", "osm_id": 30014192, "name": "Gradski stadion Velika Gorica"}}, {"type": "Feature", "id": 18, "geometry": {"type": "Point", "coordinates": [17.0220815, 43.2904233]}, "properties": {"id": 18, "osm_type": "way", "osm_id": 30415940, "name": "Gradski sportski centar Makarska"}}, {"type": "Feature", "id": 19, "geometry": {"type": "Point", "coordinates": [17.7949808, 46.369704]}, "properties": {"id": 19, "osm_type": "way", "osm_id": 32147199, "name": "Városi Sportcsarnok"}}, {"type": "Feature", "id": 20, "geometry": {"type": "Point", "coordinates": [16.4223742, 46.3915035]}, "properties": {"id": 20, "osm_type": "way", "osm_id": 33461291, "name": "Stadion SRC Mladost"}}, {"type": "Feature", "id": 21, "geometry": {"type": "Point", "coordinates": [15.9634253, 45.8025524]}, "properties": {"id": 21, "osm_type": "way", "osm_id": 33481343, "name": "Dvorana Dražen Petrović"}}, {"type": "Feature", "id": 22, "geometry": {"type": "Point", "coordinates": [18.6954064, 45.5449984]}, "properties": {"id": 22, "osm_type": "way", "osm_id": 35680205, "name": "Stadion Gradski vrt"}}, {"type": "Feature", "id": 23, "geometry": {"type": "Point", "coordinates": [13.8022111, 45.6536686]}, "properties": {"id": 23, "osm_type": "way", "osm_id": 36660125, "name": "Dvorana Bojana Pavletiča"}}, {"type": "Feature", "id": 24, "geometry": {"type": "Point", "coordinates": [15.6618288, 46.396689]}, "properties": {"id": 24, "osm_type": "way", "osm_id": 37871975}}, {"type": "Feature", "id": 25, "geometry": {"type": "Point", "coordinates": [18.1626079, 45.7658276]}, "properties": {"id": 25, "osm_type": "way", "osm_id": 38483695, "name": "Stadion Jedinstvo"}}, {"type": "Feature", "id": 26, "geometry": {"type": "Point", "coordinates": [16.5491437, 46.0270483]}, "properties": {"id": 26, "osm_type": "way", "osm_id": 38785356, "name": "Stadion NK Križevci"}}, {"type": "Feature", "id": 27, "geometry": {"type": "Point", "coordinates": [16.1164556, 45.7063383]}, "properties": {"id": 27, "osm_type": "way", "osm_id": 39183113, "name": "Dinamo Hidrel"}}, {"type": "Feature", "id": 28, "geometry": {"type": "Point", "coordinates": [18.7970733, 44.8807825]}, "properties": {"id": 28, "osm_type": "way", "osm_id": 39183445, "name": "Stadion 7. april"}}, {"type": "Feature", "id": 29, "geometry": {"type": "Point", "coordinates": [16.6538429, 43.7024277]}, "properties": {"id": 29, "osm_type": "way", "osm_id": 41170545, "name": "Gradski stadion"}}, {"type": "Feature", "id": 30, "geometry": {"type": "Point", "coordinates": [17.6465824, 43.0522901]}, "properties": {"id": 30, "osm_type": "way", "osm_id": 41779918, "name": "Iza Vage"}}, {"type": "Feature", "id": 31, "geometry": {"type": "Point", "coordinates": [13.4293321, 43.2846514]}, "properties": {"id": 31, "osm_type": "way", "osm_id": 41979464}}, {"type": "Feature", "id": 32, "geometry": {"type": "Point", "coordinates": [18.0823397, 45.4995495]}, "properties": {"id": 32, "osm_type": "way", "osm_id": 42162367, "name": "Nogometni klub Šipovac"}}, {"type": "Feature", "id": 33, "geometry": {"type": "Point", "coordinates": [13.4357204, 43.3071995]}, "properties": {"id": 33, "osm_type": "way", "osm_id": 42243049, "name": "Stadio \"Helvia Recina\""}}, {"type": "Feature", "id": 34, "geometry": {"type": "Point", "coordinates": [17.9496375, 44.6516187]}, "properties": {"id": 34, "osm_type": "way", "osm_id": 42769567}}, {"type": "Feature", "id": 35, "geometry": {"type": "Point", "coordinates": [16.3465371, 43.55324]}, "properties": {"id": 35, "osm_type": "way", "osm_id": 42917877, "name": "Vukovar"}}, {"type": "Feature", "id": 36, "geometry": {"type": "Point", "coordinates": [18.2635446, 43.9648922]}, "properties": {"id": 36, "osm_type": "way", "osm_id": 42958145, "name": "Nogometni stadion"}}, {"type": "Feature", "id": 37, "geometry": {"type": "Point", "coordinates": [18.1800744, 43.994354]}, "properties": {"id": 37, "osm_type": "way", "osm_id": 48067058, "name": "Stadion \"Luke\""}}, {"type": "Feature", "id": 38, "geometry": {"type": "Point", "coordinates": [14.3809683, 45.3391726]}, "properties": {"id": 38, "osm_type": "way", "osm_id": 48484888, "name": "Stadion Kantrida"}}, {"type": "Feature", "id": 39, "geometry": {"type": "Point", "coordinates": [16.3873673, 44.3782607]}, "properties": {"id": 39, "osm_type": "way", "osm_id": 49605201}}, {"type": "Feature", "id": 40, "geometry": {"type": "Point", "coordinates": [13.6106038, 45.1710277]}, "properties": {"id": 40, "osm_type": "way", "osm_id": 54101574, "name": "NK Funtana"}}, {"type": "Feature", "id": 41, "geometry": {"type": "Point", "coordinates": [16.7909094, 42.9395785]}, "properties": {"id": 41, "osm_type": "way", "osm_id": 55867755, "name": "Zlinje"}}, {"type": "Feature", "id": 42, "geometry": {"type": "Point", "coordinates": [13.6215125, 42.8486676]}, "properties": {"id": 42, "osm_type": "way", "osm_id": 58319997, "name": "Velodromo comunale Don Mauro Bartolini"}}, {"type": "Feature", "id": 43, "geometry": {"type": "Point", "coordinates": [15.5519841, 45.4840485]}, "properties": {"id": 43, "osm_type": "way", "osm_id": 58535560, "name": "4 rijeke"}}, {"type": "Feature", "id": 44, "geometry": {"type": "Point", "coordinates": [13.9549203, 42.7491445]}, "properties": {"id": 44, "osm_type": "way", "osm_id": 58887023, "name": "Stadio Rubens Fadini"}}, {"type": "Feature", "id": 45, "geometry": {"type": "Point", "coordinates": [17.1995284, 44.7760442]}, "properties": {"id": 45, "osm_type": "way", "osm_id": 59565171, "name": "Gradski stadion"}}, {"type": "Feature", "id": 46, "geometry": {"type": "Point", "coordinates": [16.2311706, 45.8096115]}, "properties": {"id": 46, "osm_type": "way", "osm_id": 60228839, "name": "Gradski stadion"}}, {"type": "Feature", "id": 47, "geometry": {"type": "Point", "coordinates": [13.4894837, 42.8824206]}, "properties": {"id": 47, "osm_type": "way", "osm_id": 61595101, "name": "Stadio Comunale \"Antonio di Ridolfi\""}}, {"type": "Feature", "id": 48, "geometry": {"type": "Point", "coordinates": [15.9854338, 45.8155565]}, "properties": {"id": 48, "osm_type": "way", "osm_id": 64730698, "name": "Stadion Šalata", "capacity": 6000}}, {"type": "Feature", "id": 49, "geometry": {"type": "Point", "coordinates": [14.0235416, 42.6615878]}, "properties": {"id": 49, "osm_type": "way", "osm_id": 69683857, "name": "Stadio Comunale Fonte dell'Olmo"}}, {"type": "Feature", "id": 50, "geometry": {"type": "Point", "coordinates": [14.8830571, 44.5471064]}, "properties": {"id": 50, "osm_type": "way", "osm_id": 71429969, "name": "Cissa-Straško"}}, {"type": "Feature", "id": 51, "geometry": {"type": "Point", "coordinates": [15.4555086, 43.9397729]}, "properties": {"id": 51, "osm_type": "way", "osm_id": 74198115, "name": "Gradski stadion Kazimir i Silvio"}}, {"type": "Feature", "id": 52, "geometry": {"type": "Point", "coordinates": [18.617759, 45.5610968]}, "properties": {"id": 52, "osm_type": "way", "osm_id": 75597046, "name": "NK Višnjevac"}}, {"type": "Feature", "id": 53, "geometry": {"type": "Point", "coordinates": [18.5898699, 45.5733491]}, "properties": {"id": 53, "osm_type": "way", "osm_id": 78047824, "name": "NK Radnik"}}, {"type": "Feature", "id": 54, "geometry": {"type": "Point", "coordinates": [18.5280903, 44.5385682]}, "properties": {"id": 54, "osm_type": "way", "osm_id": 80913307}}, {"type": "Feature", "id": 55, "geometry": {"type": "Point", "coordinates": [13.8554104, 45.6064165]}, "properties": {"id": 55, "osm_type": "way", "osm_id": 83199203}}, {"type": "Feature", "id": 56, "geometry": {"type": "Point", "coordinates": [16.8351728, 46.1667743]}, "properties": {"id": 56, "osm_type": "way", "osm_id": 84513959, "name": "Gradski stadion „Ivan Kušek Apaš”"}}, {"type": "Feature", "id": 57, "geometry": {"type": "Point", "coordinates": [18.7972528, 45.2837606]}, "properties": {"id": 57, "osm_type": "way", "osm_id": 87309521, "name": "HNK Cibalia"}}, {"type": "Feature", "id": 58, "geometry": {"type": "Point", "coordinates": [17.3094776, 44.9070181]}, "properties": {"id": 58, "osm_type": "way", "osm_id": 88428885, "name": "Gradski stadion"}}, {"type": "Feature", "id": 59, "geometry": {"type": "Point", "coordinates": [17.383193, 45.8389282]}, "properties": {"id": 59, "osm_type": "way", "osm_id": 88570346, "name": "NK Vitovitica"}}, {"type": "Feature", "id": 60, "geometry": {"type": "Point", "coordinates": [17.4035529, 45.7877531]}, "properties": {"id": 60, "osm_type": "way", "osm_id": 88704335}}, {"type": "Feature", "id": 61, "geometry": {"type": "Point", "coordinates": [17.3389955, 45.8261432]}, "properties": {"id": 61, "osm_type": "way", "osm_id": 88917282}}, {"type": "Feature", "id": 62, "geometry": {"type": "Point", "coordinates": [17.497741, 45.7977704]}, "properties": {"id": 62, "osm_type": "way", "osm_id": 88925649, "name": "Park"}}, {"type": "Feature", "id": 63, "geometry": {"type": "Point", "coordinates": [15.6046842, 45.90881]}, "properties": {"id": 63, "osm_type": "way", "osm_id": 89019894}}, {"type": "Feature", "id": 64, "geometry": {"type": "Point", "coordinates": [13.6653106, 45.5372518]}, "properties": {"id": 64, "osm_type": "way", "osm_id": 90131594, "name": "Mestni stadion Izola - Stadio cittadino Isola"}}, {"type": "Feature", "id": 65, "geometry": {"type": "Point", "coordinates": [18.0772845, 43.9453787]}, "properties": {"id": 65, "osm_type": "way", "osm_id": 90629959, "name": "Stadion Hrvatskih Branitelja"}}, {"type": "Feature", "id": 66, "geometry": {"type": "Point", "coordinates": [16.3772774, 45.4783248]}, "properties": {"id": 66, "osm_type": "way", "osm_id": 91581513, "name": "Gradski stadion"}}, {"type": "Feature", "id": 67, "geometry": {"type": "Point", "coordinates": [16.3806296, 45.4580677]}, "properties": {"id": 67, "osm_type": "way", "osm_id": 91582266, "name": "NK Metalac"}}, {"type": "Feature", "id": 68, "geometry": {"type": "Point", "coordinates": [17.2731822, 43.9976925]}, "properties": {"id": 68, "osm_type": "way", "osm_id": 91584390, "name": "Tribina"}}, {"type": "Feature", "id": 69, "geometry": {"type": "Point", "coordinates": [17.2225107, 45.595402]}, "properties": {"id": 69, "osm_type": "way", "osm_id": 94243991, "name": "Stadion \"Sokol\""}}, {"type": "Feature", "id": 70, "geometry": {"type": "Point", "coordinates": [16.1574905, 43.8609603]}, "properties": {"id": 70, "osm_type": "way", "osm_id": 96005930, "name": "Podvornica"}}, {"type": "Feature", "id": 71, "geometry": {"type": "Point", "coordinates": [18.0340532, 45.1693455]}, "properties": {"id": 71, "osm_type": "way", "osm_id": 99414558, "name": "ŠRC Stanko Vlainić-Dida"}}, {"type": "Feature", "id": 72, "geometry": {"type": "Point", "coordinates": [14.4993572, 45.3477035]}, "properties": {"id": 72, "osm_type": "way", "osm_id": 100057443, "name": "Mavrinci"}}, {"type": "Feature", "id": 73, "geometry": {"type": "Point", "coordinates": [14.4683597, 45.3237209]}, "properties": {"id": 73, "osm_type": "way", "osm_id": 100119586, "name": "Stadion Krimeja"}}, {"type": "Feature", "id": 74, "geometry": {"type": "Point", "coordinates": [13.6467956, 45.0769528]}, "properties": {"id": 74, "osm_type": "way", "osm_id": 100321874, "name": "Valbrune"}}, {"type": "Feature", "id": 75, "geometry": {"type": "Point", "coordinates": [17.2413045, 45.5242554]}, "properties": {"id": 75, "osm_type": "way", "osm_id": 100897979}}, {"type": "Feature", "id": 76, "geometry": {"type": "Point", "coordinates": [17.8034311, 45.2887251]}, "properties": {"id": 76, "osm_type": "way", "osm_id": 101988529, "name": "Stjepan Zdenko Šivo"}}, {"type": "Feature", "id": 77, "geometry": {"type": "Point", "coordinates": [16.4464227, 43.5123466]}, "properties": {"id": 77, "osm_type": "way", "osm_id": 102556515, "name": "Teren RK Split"}}, {"type": "Feature", "id": 78, "geometry": {"type": "Point", "coordinates": [17.4662135, 45.786723]}, "properties": {"id": 78, "osm_type": "way", "osm_id": 103021395}}, {"type": "Feature", "id": 79, "geometry": {"type": "Point", "coordinates": [18.3560231, 43.829833]}, "properties": {"id": 79, "osm_type": "way", "osm_id": 107359733, "name": "FK Dobrinja"}}, {"type": "Feature", "id": 80, "geometry": {"type": "Point", "coordinates": [18.7228661, 45.6228723]}, "properties": {"id": 80, "osm_type": "way", "osm_id": 107414685, "name": "HNK Radnički Mece"}}, {"type": "Feature", "id": 81, "geometry": {"type": "Point", "coordinates": [16.1408713, 45.7914108]}, "properties": {"id": 81, "osm_type": "way", "osm_id": 108434349, "name": "NK Sava"}}, {"type": "Feature", "id": 82, "geometry": {"type": "Point", "coordinates": [16.1190106, 45.7947929]}, "properties": {"id": 82, "osm_type": "way", "osm_id": 108436741, "name": "NK Ivanja Reka"}}, {"type": "Feature", "id": 83, "geometry": {"type": "Point", "coordinates": [13.7298403, 43.1676556]}, "properties": {"id": 83, "osm_type": "way", "osm_id": 110675848, "name": "Stadio Bruno Recchioni"}}, {"type": "Feature", "id": 84, "geometry": {"type": "Point", "coordinates": [13.4928163, 43.4860793]}, "properties": {"id": 84, "osm_type": "way", "osm_id": 111267053, "name": "Stadio Diana"}}, {"type": "Feature", "id": 85, "geometry": {"type": "Point", "coordinates": [13.6871912, 42.669655]}, "properties": {"id": 85, "osm_type": "way", "osm_id": 113756993, "name": "PalaScapriano"}}, {"type": "Feature", "id": 86, "geometry": {"type": "Point", "coordinates": [13.6644177, 42.6565579]}, "properties": {"id": 86, "osm_type": "way", "osm_id": 114569864}}, {"type": "Feature", "id": 87, "geometry": {"type": "Point", "coordinates": [18.7799408, 45.2829265]}, "properties": {"id": 87, "osm_type": "way", "osm_id": 118012897, "name": "NK Dilj"}}, {"type": "Feature", "id": 88, "geometry": {"type": "Point", "coordinates": [13.5222934, 45.4468349]}, "properties": {"id": 88, "osm_type": "way", "osm_id": 119489321}}, {"type": "Feature", "id": 89, "geometry": {"type": "Point", "coordinates": [15.3636471, 44.0973695]}, "properties": {"id": 89, "osm_type": "way", "osm_id": 120303433}}, {"type": "Feature", "id": 90, "geometry": {"type": "Point", "coordinates": [13.8811606, 42.9599861]}, "properties": {"id": 90, "osm_type": "way", "osm_id": 121189056, "name": "Stadio \"Fratelli Ballarin\""}}, {"type": "Feature", "id": 91, "geometry": {"type": "Point", "coordinates": [17.7818814, 46.3521471]}, "properties": {"id": 91, "osm_type": "way", "osm_id": 121762568}}, {"type": "Feature", "id": 92, "geometry": {"type": "Point", "coordinates": [15.4278765, 43.9155224]}, "properties": {"id": 92, "osm_type": "way", "osm_id": 122547483}}, {"type": "Feature", "id": 93, "geometry": {"type": "Point", "coordinates": [15.4169976, 43.9190394]}, "properties": {"id": 93, "osm_type": "way", "osm_id": 122718660}}, {"type": "Feature", "id": 94, "geometry": {"type": "Point", "coordinates": [14.5607104, 45.21654]}, "properties": {"id": 94, "osm_type": "way", "osm_id": 123398598}}, {"type": "Feature", "id": 95, "geometry": {"type": "Point", "coordinates": [17.2569261, 45.1425255]}, "properties": {"id": 95, "osm_type": "way", "osm_id": 128933432, "name": "Stadion Kozara"}}, {"type": "Feature", "id": 96, "geometry": {"type": "Point", "coordinates": [15.1025723, 44.3484253]}, "properties": {"id": 96, "osm_type": "way", "osm_id": 129848078, "name": "Tenis AS"}}, {"type": "Feature", "id": 97, "geometry": {"type": "Point", "coordinates": [18.4090273, 45.3212865]}, "properties": {"id": 97, "osm_type": "way", "osm_id": 130758251, "name": "NK \"Croatia\""}}, {"type": "Feature", "id": 98, "geometry": {"type": "Point", "coordinates": [14.2117539, 45.7825607]}, "properties": {"id": 98, "osm_type": "way", "osm_id": 130796758}}, {"type": "Feature", "id": 99, "geometry": {"type": "Point", "coordinates": [16.2467782, 43.5158294]}, "properties": {"id": 99, "osm_type": "way", "osm_id": 131292633, "name": "Batarija"}}, {"type": "Feature", "id": 100, "geometry": {"type": "Point", "coordinates": [14.4974614, 45.3049131]}, "properties": {"id": 100, "osm_type": "way", "osm_id": 131468229, "name": "Stadion Žuknica"}}, {"type": "Feature", "id": 101, "geometry": {"type": "Point", "coordinates": [17.6633628, 45.4408151]}, "properties": {"id": 101, "osm_type": "way", "osm_id": 136493463, "name": "Stadion Kamen Ingrad"}}, {"type": "Feature", "id": 102, "geometry": {"type": "Point", "coordinates": [15.7999159, 45.8648392]}, "properties": {"id": 102, "osm_type": "way", "osm_id": 138267480, "name": "ŠRC Zaprešić"}}, {"type": "Feature", "id": 103, "geometry": {"type": "Point", "coordinates": [14.4893208, 46.0735074]}, "properties": {"id": 103, "osm_type": "way", "osm_id": 140102691, "name": "Stadion OŠ H.S."}}, {"type": "Feature", "id": 104, "geometry": {"type": "Point", "coordinates": [18.3875059, 43.8465591]}, "properties": {"id": 104, "osm_type": "way", "osm_id": 140482805, "name": "Stadion Grbavica", "capacity": 13442}}, {"type": "Feature", "id": 105, "geometry": {"type": "Point", "coordinates": [16.4441699, 43.5191724]}, "properties": {"id": 105, "osm_type": "way", "osm_id": 142674916, "name": "Stadion Park mladeži"}}, {"type": "Feature", "id": 106, "geometry": {"type": "Point", "coordinates": [16.4319237, 43.5195822]}, "properties": {"id": 106, "osm_type": "way", "osm_id": 142675682, "name": "Gradski stadion u Poljudu"}}, {"type": "Feature", "id": 107, "geometry": {"type": "Point", "coordinates": [14.1251908, 45.0896911]}, "properties": {"id": 107, "osm_type": "way", "osm_id": 142885904}}, {"type": "Feature", "id": 108, "geometry": {"type": "Point", "coordinates": [14.1192604, 45.0965068]}, "properties": {"id": 108, "osm_type": "way", "osm_id": 142885905, "name": "Gradski stadion"}}, {"type": "Feature", "id": 109, "geometry": {"type": "Point", "coordinates": [13.940073, 45.2409856]}, "properties": {"id": 109, "osm_type": "way", "osm_id": 143901585, "name": "Gradski stadion"}}, {"type": "Feature", "id": 110, "geometry": {"type": "Point", "coordinates": [16.6846366, 43.4414455]}, "properties": {"id": 110, "osm_type": "way", "osm_id": 145035715, "name": "Anđelko Marušić- Ferata"}}, {"type": "Feature", "id": 111, "geometry": {"type": "Point", "coordinates": [16.52707, 43.5046108]}, "properties": {"id": 111, "osm_type": "way", "osm_id": 145315424, "name": "Blato"}}, {"type": "Feature", "id": 112, "geometry": {"type": "Point", "coordinates": [13.6047782, 45.2238222]}, "properties": {"id": 112, "osm_type": "way", "osm_id": 146646171, "name": "Veli Jože"}}, {"type": "Feature", "id": 113, "geometry": {"type": "Point", "coordinates": [18.9548976, 46.184998]}, "properties": {"id": 113, "osm_type": "way", "osm_id": 148316619, "name": "Dr. Pósta Sándor Sportcsarnok"}}, {"type": "Feature", "id": 114, "geometry": {"type": "Point", "coordinates": [13.8548532, 45.6060565]}, "properties": {"id": 114, "osm_type": "way", "osm_id": 148981672}}, {"type": "Feature", "id": 115, "geometry": {"type": "Point", "coordinates": [16.2727071, 45.4303269]}, "properties": {"id": 115, "osm_type": "way", "osm_id": 149963940, "name": "Gradski stadion"}}, {"type": "Feature", "id": 116, "geometry": {"type": "Point", "coordinates": [19.2645103, 42.4447262]}, "properties": {"id": 116, "osm_type": "way", "osm_id": 153735656, "name": "Stadion pod Goricom"}}, {"type": "Feature", "id": 117, "geometry": {"type": "Point", "coordinates": [19.2252649, 42.4510047]}, "properties": {"id": 117, "osm_type": "way", "osm_id": 153925915, "name": "Tološi Stadium"}}, {"type": "Feature", "id": 118, "geometry": {"type": "Point", "coordinates": [18.9160712, 44.4638582]}, "properties": {"id": 118, "osm_type": "way", "osm_id": 155737092, "name": "Sportski poligon"}}, {"type": "Feature", "id": 119, "geometry": {"type": "Point", "coordinates": [13.6009375, 43.2644226]}, "properties": {"id": 119, "osm_type": "way", "osm_id": 156366310}}, {"type": "Feature", "id": 120, "geometry": {"type": "Point", "coordinates": [13.6848556, 43.2315404]}, "properties": {"id": 120, "osm_type": "way", "osm_id": 160418992}}, {"type": "Feature", "id": 121, "geometry": {"type": "Point", "coordinates": [13.8340339, 44.8583112]}, "properties": {"id": 121, "osm_type": "way", "osm_id": 160714167, "name": "Uljanikov stadion"}}, {"type": "Feature", "id": 122, "geometry": {"type": "Point", "coordinates": [16.4628144, 46.426743]}, "properties": {"id": 122, "osm_type": "way", "osm_id": 161288451, "name": "NK Omladinac"}}, {"type": "Feature", "id": 123, "geometry": {"type": "Point", "coordinates": [13.8513486, 44.8616443]}, "properties": {"id": 123, "osm_type": "way", "osm_id": 162722050, "name": "Stadion Aldo Drosina"}}, {"type": "Feature", "id": 124, "geometry": {"type": "Point", "coordinates": [16.7080043, 44.9819993]}, "properties": {"id": 124, "osm_type": "way", "osm_id": 163978769, "name": "Stadion Rudar Prijedor"}}, {"type": "Feature", "id": 125, "geometry": {"type": "Point", "coordinates": [14.6013298, 46.1326577]}, "properties": {"id": 125, "osm_type": "way", "osm_id": 164428727, "name": "Ten-Ten"}}, {"type": "Feature", "id": 126, "geometry": {"type": "Point", "coordinates": [18.8188401, 44.843241]}, "properties": {"id": 126, "osm_type": "way", "osm_id": 165397230}}, {"type": "Feature", "id": 127, "geometry": {"type": "Point", "coordinates": [18.195777, 43.8217741]}, "properties": {"id": 127, "osm_type": "way", "osm_id": 166227048, "name": "Stadion FK Radnik Hadžići"}}, {"type": "Feature", "id": 128, "geometry": {"type": "Point", "coordinates": [17.8998759, 44.9865607]}, "properties": {"id": 128, "osm_type": "way", "osm_id": 167318594, "name": "Fudbalski klub Tekstilac"}}, {"type": "Feature", "id": 129, "geometry": {"type": "Point", "coordinates": [17.8543815, 43.3784189]}, "properties": {"id": 129, "osm_type": "way", "osm_id": 168114489, "name": "Stadion Rođeni"}}, {"type": "Feature", "id": 130, "geometry": {"type": "Point", "coordinates": [17.2358693, 43.7149598]}, "properties": {"id": 130, "osm_type": "way", "osm_id": 168514616, "name": "Stadion Tomislav"}}, {"type": "Feature", "id": 131, "geometry": {"type": "Point", "coordinates": [17.6628871, 44.1720682]}, "properties": {"id": 131, "osm_type": "way", "osm_id": 168522944, "name": "Sportska dvorana"}}, {"type": "Feature", "id": 132, "geometry": {"type": "Point", "coordinates": [18.3243961, 45.0177758]}, "properties": {"id": 132, "osm_type": "way", "osm_id": 169322923, "name": "Gradski stadion"}}, {"type": "Feature", "id": 133, "geometry": {"type": "Point", "coordinates": [15.9391258, 44.9629215]}, "properties": {"id": 133, "osm_type": "way", "osm_id": 169747391, "name": "Igralište Alinac"}}, {"type": "Feature", "id": 134, "geometry": {"type": "Point", "coordinates": [15.9356074, 44.9626306]}, "properties": {"id": 134, "osm_type": "way", "osm_id": 169747408, "name": "Stadion F.K. Krajine"}}, {"type": "Feature", "id": 135, "geometry": {"type": "Point", "coordinates": [15.9670067, 44.9369857]}, "properties": {"id": 135, "osm_type": "way", "osm_id": 169747454, "name": "Mladost Polje"}}, {"type": "Feature", "id": 136, "geometry": {"type": "Point", "coordinates": [15.9668988, 44.9497127]}, "properties": {"id": 136, "osm_type": "way", "osm_id": 169747472, "name": "Igralište Polje"}}, {"type": "Feature", "id": 137, "geometry": {"type": "Point", "coordinates": [19.0916883, 42.5469855]}, "properties": {"id": 137, "osm_type": "way", "osm_id": 169969732}}, {"type": "Feature", "id": 138, "geometry": {"type": "Point", "coordinates": [18.2035675, 44.0278167]}, "properties": {"id": 138, "osm_type": "way", "osm_id": 170218328, "name": "Sportska dvorana"}}, {"type": "Feature", "id": 139, "geometry": {"type": "Point", "coordinates": [17.7883063, 44.153766]}, "properties": {"id": 139, "osm_type": "way", "osm_id": 170339492, "name": "Gradski stadion"}}, {"type": "Feature", "id": 140, "geometry": {"type": "Point", "coordinates": [17.5616246, 43.0154282]}, "properties": {"id": 140, "osm_type": "way", "osm_id": 170782842, "name": "Podvornica"}}, {"type": "Feature", "id": 141, "geometry": {"type": "Point", "coordinates": [17.3281991, 43.4692079]}, "properties": {"id": 141, "osm_type": "way", "osm_id": 170936021, "name": "Stadion Mokri Dolac"}}, {"type": "Feature", "id": 142, "geometry": {"type": "Point", "coordinates": [17.7924174, 44.1906166]}, "properties": {"id": 142, "osm_type": "way", "osm_id": 171463919, "name": "Pušine"}}, {"type": "Feature", "id": 143, "geometry": {"type": "Point", "coordinates": [18.0787468, 42.654772]}, "properties": {"id": 143, "osm_type": "way", "osm_id": 171497147, "name": "Stadion Lapad"}}, {"type": "Feature", "id": 144, "geometry": {"type": "Point", "coordinates": [15.8637773, 44.8065813]}, "properties": {"id": 144, "osm_type": "way", "osm_id": 171773912, "name": "Stadion Jedinstvo"}}, {"type": "Feature", "id": 145, "geometry": {"type": "Point", "coordinates": [17.808737, 43.3542937]}, "properties": {"id": 145, "osm_type": "way", "osm_id": 171864955}}, {"type": "Feature", "id": 146, "geometry": {"type": "Point", "coordinates": [17.6456583, 44.2248123]}, "properties": {"id": 146, "osm_type": "way", "osm_id": 172725791, "name": "Stadion Pirota"}}, {"type": "Feature", "id": 147, "geometry": {"type": "Point", "coordinates": [18.637637, 45.0382856]}, "properties": {"id": 147, "osm_type": "way", "osm_id": 172814640}}, {"type": "Feature", "id": 148, "geometry": {"type": "Point", "coordinates": [14.521472, 46.0813837]}, "properties": {"id": 148, "osm_type": "way", "osm_id": 173167317, "name": "Arena Stožice"}}, {"type": "Feature", "id": 149, "geometry": {"type": "Point", "coordinates": [16.5739486, 43.5879775]}, "properties": {"id": 149, "osm_type": "way", "osm_id": 173920206, "name": "Stadion Hrvatski vitezovi"}}, {"type": "Feature", "id": 150, "geometry": {"type": "Point", "coordinates": [17.6828461, 43.0619624]}, "properties": {"id": 150, "osm_type": "way", "osm_id": 178132016, "name": "Stadion Perica Pero Pavlović"}}, {"type": "Feature", "id": 151, "geometry": {"type": "Point", "coordinates": [18.5640348, 45.528826]}, "properties": {"id": 151, "osm_type": "way", "osm_id": 179945019, "name": "NK Čepin"}}, {"type": "Feature", "id": 152, "geometry": {"type": "Point", "coordinates": [16.712676, 42.9674663]}, "properties": {"id": 152, "osm_type": "way", "osm_id": 180365324}}, {"type": "Feature", "id": 153, "geometry": {"type": "Point", "coordinates": [17.5980267, 43.3787435]}, "properties": {"id": 153, "osm_type": "way", "osm_id": 180755425, "name": "Stadion Pecara"}}, {"type": "Feature", "id": 154, "geometry": {"type": "Point", "coordinates": [16.5499429, 43.4897093]}, "properties": {"id": 154, "osm_type": "way", "osm_id": 180852444}}, {"type": "Feature", "id": 155, "geometry": {"type": "Point", "coordinates": [18.1173464, 43.2597689]}, "properties": {"id": 155, "osm_type": "way", "osm_id": 182028338}}, {"type": "Feature", "id": 156, "geometry": {"type": "Point", "coordinates": [18.5360054, 43.1617954]}, "properties": {"id": 156, "osm_type": "way", "osm_id": 184278457, "name": "FK Mladost"}}, {"type": "Feature", "id": 157, "geometry": {"type": "Point", "coordinates": [17.7031171, 43.2272374]}, "properties": {"id": 157, "osm_type": "way", "osm_id": 184781171, "name": "Stadion Bare"}}, {"type": "Feature", "id": 158, "geometry": {"type": "Point", "coordinates": [14.4651409, 46.0995793]}, "properties": {"id": 158, "osm_type": "way", "osm_id": 185609542, "name": "Športna dvorana Gimnazije Šentvid"}}, {"type": "Feature", "id": 159, "geometry": {"type": "Point", "coordinates": [14.5329658, 46.049346]}, "properties": {"id": 159, "osm_type": "way", "osm_id": 187081068, "name": "Stadion Kodeljevo"}}, {"type": "Feature", "id": 160, "geometry": {"type": "Point", "coordinates": [14.5331422, 46.0503585]}, "properties": {"id": 160, "osm_type": "way", "osm_id": 187081075, "name": "Dvorana Kodeljevo"}}, {"type": "Feature", "id": 161, "geometry": {"type": "Point", "coordinates": [17.5785999, 43.9375786]}, "properties": {"id": 161, "osm_type": "way", "osm_id": 189587127}}, {"type": "Feature", "id": 162, "geometry": {"type": "Point", "coordinates": [17.004134, 43.8194386]}, "properties": {"id": 162, "osm_type": "way", "osm_id": 192440325, "name": "Gradski stadion Zgona"}}, {"type": "Feature", "id": 163, "geometry": {"type": "Point", "coordinates": [17.4555888, 44.0525741]}, "properties": {"id": 163, "osm_type": "way", "osm_id": 192599483, "name": "Gradski Stadion Jaklić"}}, {"type": "Feature", "id": 164, "geometry": {"type": "Point", "coordinates": [13.7305345, 45.5422675]}, "properties": {"id": 164, "osm_type": "way", "osm_id": 193319462, "name": "Stadion Bonifika / Stadio Bonifica"}}, {"type": "Feature", "id": 165, "geometry": {"type": "Point", "coordinates": [13.730403, 45.5404958]}, "properties": {"id": 165, "osm_type": "way", "osm_id": 193319810, "name": "Atletski stadion / Stadio d'atletica"}}, {"type": "Feature", "id": 166, "geometry": {"type": "Point", "coordinates": [18.0938501, 44.7324397]}, "properties": {"id": 166, "osm_type": "way", "osm_id": 194102580, "name": "Stadion \"Luke\""}}, {"type": "Feature", "id": 167, "geometry": {"type": "Point", "coordinates": [15.2304218, 46.1648221]}, "properties": {"id": 167, "osm_type": "way", "osm_id": 195615300, "name": "Dvorana tri lilije"}}, {"type": "Feature", "id": 168, "geometry": {"type": "Point", "coordinates": [17.0289075, 42.9746661]}, "properties": {"id": 168, "osm_type": "way", "osm_id": 197689783}}, {"type": "Feature", "id": 169, "geometry": {"type": "Point", "coordinates": [15.5639482, 45.4844772]}, "properties": {"id": 169, "osm_type": "way", "osm_id": 198446928, "name": "Nogometni stadion Branko Čavlović-Čavlek"}}, {"type": "Feature", "id": 170, "geometry": {"type": "Point", "coordinates": [13.9593991, 42.7549754]}, "properties": {"id": 170, "osm_type": "way", "osm_id": 198457848}}, {"type": "Feature", "id": 171, "geometry": {"type": "Point", "coordinates": [19.3608433, 45.2235636]}, "properties": {"id": 171, "osm_type": "way", "osm_id": 199159013, "name": "NK Fruškogorac"}}, {"type": "Feature", "id": 172, "geometry": {"type": "Point", "coordinates": [14.7998255, 46.5847301]}, "properties": {"id": 172, "osm_type": "way", "osm_id": 199252862, "name": "JUFA ARENA"}}, {"type": "Feature", "id": 173, "geometry": {"type": "Point", "coordinates": [17.3917187, 44.1387155]}, "properties": {"id": 173, "osm_type": "way", "osm_id": 199351458}}, {"type": "Feature", "id": 174, "geometry": {"type": "Point", "coordinates": [13.9488494, 42.7846675]}, "properties": {"id": 174, "osm_type": "way", "osm_id": 199388830, "name": "Stadio Pasqualino Pierantozzi"}}, {"type": "Feature", "id": 175, "geometry": {"type": "Point", "coordinates": [15.5609503, 45.4900232]}, "properties": {"id": 175, "osm_type": "way", "osm_id": 203883586, "name": "Dvorana teniskog kluba"}}, {"type": "Feature", "id": 176, "geometry": {"type": "Point", "coordinates": [16.6547846, 45.0140582]}, "properties": {"id": 176, "osm_type": "way", "osm_id": 207467635}}, {"type": "Feature", "id": 177, "geometry": {"type": "Point", "coordinates": [16.6696182, 44.7555533]}, "properties": {"id": 177, "osm_type": "way", "osm_id": 208035035, "name": "Stadion Sloboda"}}, {"type": "Feature", "id": 178, "geometry": {"type": "Point", "coordinates": [18.9979829, 44.6905092]}, "properties": {"id": 178, "osm_type": "way", "osm_id": 208704951}}, {"type": "Feature", "id": 179, "geometry": {"type": "Point", "coordinates": [17.8487988, 43.3738734]}, "properties": {"id": 179, "osm_type": "way", "osm_id": 216267621, "name": "FK Lokomotiva"}}, {"type": "Feature", "id": 180, "geometry": {"type": "Point", "coordinates": [18.8761097, 44.4412238]}, "properties": {"id": 180, "osm_type": "way", "osm_id": 216555895, "name": "Gradski stadion"}}, {"type": "Feature", "id": 181, "geometry": {"type": "Point", "coordinates": [13.7890559, 42.6973942]}, "properties": {"id": 181, "osm_type": "way", "osm_id": 221312518, "name": "Pala San Nicolò"}}, {"type": "Feature", "id": 182, "geometry": {"type": "Point", "coordinates": [15.5533175, 45.4916549]}, "properties": {"id": 182, "osm_type": "way", "osm_id": 221351550}}, {"type": "Feature", "id": 183, "geometry": {"type": "Point", "coordinates": [18.795422, 43.5782534]}, "properties": {"id": 183, "osm_type": "way", "osm_id": 222375522}}, {"type": "Feature", "id": 184, "geometry": {"type": "Point", "coordinates": [18.6962287, 44.4127905]}, "properties": {"id": 184, "osm_type": "way", "osm_id": 222645301}}, {"type": "Feature", "id": 185, "geometry": {"type": "Point", "coordinates": [14.1144959, 45.1372992]}, "properties": {"id": 185, "osm_type": "way", "osm_id": 224919885, "name": "Igralište Nedešćina"}}, {"type": "Feature", "id": 186, "geometry": {"type": "Point", "coordinates": [16.421385, 43.550078]}, "properties": {"id": 186, "osm_type": "way", "osm_id": 226416154, "name": "Zrinski"}}, {"type": "Feature", "id": 187, "geometry": {"type": "Point", "coordinates": [16.6712786, 44.762928]}, "properties": {"id": 187, "osm_type": "way", "osm_id": 226624054, "name": "Podgrmeč"}}, {"type": "Feature", "id": 188, "geometry": {"type": "Point", "coordinates": [18.4168591, 45.301625]}, "properties": {"id": 188, "osm_type": "way", "osm_id": 228040893, "name": "NK Đakovo"}}, {"type": "Feature", "id": 189, "geometry": {"type": "Point", "coordinates": [15.1027466, 44.3483389]}, "properties": {"id": 189, "osm_type": "way", "osm_id": 230811136}}, {"type": "Feature", "id": 190, "geometry": {"type": "Point", "coordinates": [13.8033564, 43.1654887]}, "properties": {"id": 190, "osm_type": "way", "osm_id": 230941090, "name": "Stadio Nuovo"}}, {"type": "Feature", "id": 191, "geometry": {"type": "Point", "coordinates": [16.6294972, 43.7690499]}, "properties": {"id": 191, "osm_type": "way", "osm_id": 231179492, "name": "NK Hrvace"}}, {"type": "Feature", "id": 192, "geometry": {"type": "Point", "coordinates": [16.3332417, 46.1626989]}, "properties": {"id": 192, "osm_type": "way", "osm_id": 231345566, "name": "Sportski park"}}, {"type": "Feature", "id": 193, "geometry": {"type": "Point", "coordinates": [18.3511486, 45.2249891]}, "properties": {"id": 193, "osm_type": "way", "osm_id": 235092416, "name": "NK Slavonac"}}, {"type": "Feature", "id": 194, "geometry": {"type": "Point", "coordinates": [18.3988388, 45.2510944]}, "properties": {"id": 194, "osm_type": "way", "osm_id": 235119149, "name": "NK Ratar"}}, {"type": "Feature", "id": 195, "geometry": {"type": "Point", "coordinates": [13.7624819, 42.6825272]}, "properties": {"id": 195, "osm_type": "way", "osm_id": 235219229, "name": "Stadio Gaetano Bonolis"}}, {"type": "Feature", "id": 196, "geometry": {"type": "Point", "coordinates": [13.7017148, 42.6561729]}, "properties": {"id": 196, "osm_type": "way", "osm_id": 235334807, "name": "Stadio comunale"}}, {"type": "Feature", "id": 197, "geometry": {"type": "Point", "coordinates": [17.7063314, 43.0841498]}, "properties": {"id": 197, "osm_type": "way", "osm_id": 235631599, "name": "Mićin"}}, {"type": "Feature", "id": 198, "geometry": {"type": "Point", "coordinates": [19.3441007, 43.3563889]}, "properties": {"id": 198, "osm_type": "way", "osm_id": 235748401}}, {"type": "Feature", "id": 199, "geometry": {"type": "Point", "coordinates": [13.8917829, 42.9289476]}, "properties": {"id": 199, "osm_type": "way", "osm_id": 237728341, "name": "Palasport Bernardo Speca"}}, {"type": "Feature", "id": 200, "geometry": {"type": "Point", "coordinates": [16.782673, 45.4879027]}, "properties": {"id": 200, "osm_type": "way", "osm_id": 238358795, "name": "Stadion Moslavina"}}, {"type": "Feature", "id": 201, "geometry": {"type": "Point", "coordinates": [19.2166977, 42.3654681]}, "properties": {"id": 201, "osm_type": "way", "osm_id": 239484551, "name": "Stadion Ljajkovići"}}, {"type": "Feature", "id": 202, "geometry": {"type": "Point", "coordinates": [18.4879546, 44.7035842]}, "properties": {"id": 202, "osm_type": "way", "osm_id": 240599363, "name": "Stadion Gradina"}}, {"type": "Feature", "id": 203, "geometry": {"type": "Point", "coordinates": [19.2973655, 43.7816777]}, "properties": {"id": 203, "osm_type": "way", "osm_id": 241027609}}, {"type": "Feature", "id": 204, "geometry": {"type": "Point", "coordinates": [16.8499281, 44.0480623]}, "properties": {"id": 204, "osm_type": "way", "osm_id": 241282881, "name": "Stadion NK Šator"}}, {"type": "Feature", "id": 205, "geometry": {"type": "Point", "coordinates": [15.0159067, 46.587558]}, "properties": {"id": 205, "osm_type": "way", "osm_id": 241943655}}, {"type": "Feature", "id": 206, "geometry": {"type": "Point", "coordinates": [17.794405, 46.3701695]}, "properties": {"id": 206, "osm_type": "way", "osm_id": 243100892, "name": "Kaposvári Rg Csarnok"}}, {"type": "Feature", "id": 207, "geometry": {"type": "Point", "coordinates": [17.251353, 44.3452753]}, "properties": {"id": 207, "osm_type": "way", "osm_id": 251766737, "name": "Gradski stadion Mračaj"}}, {"type": "Feature", "id": 208, "geometry": {"type": "Point", "coordinates": [13.8214914, 45.3818469]}, "properties": {"id": 208, "osm_type": "way", "osm_id": 256807358, "name": "Stadion NK Grožnjan-Oprtalj"}}, {"type": "Feature", "id": 209, "geometry": {"type": "Point", "coordinates": [15.8661224, 44.8382854]}, "properties": {"id": 209, "osm_type": "way", "osm_id": 258815225, "name": "Hipodrom Bakšaiške bare"}}, {"type": "Feature", "id": 210, "geometry": {"type": "Point", "coordinates": [15.9721651, 45.7711331]}, "properties": {"id": 210, "osm_type": "way", "osm_id": 261119216, "name": "Stjepan Spajić"}}, {"type": "Feature", "id": 211, "geometry": {"type": "Point", "coordinates": [18.8651593, 44.7694845]}, "properties": {"id": 211, "osm_type": "way", "osm_id": 261147657, "name": "Igralište \"Čedo Rikanović\""}}, {"type": "Feature", "id": 212, "geometry": {"type": "Point", "coordinates": [16.881265, 42.9298159]}, "properties": {"id": 212, "osm_type": "way", "osm_id": 262294727}}, {"type": "Feature", "id": 213, "geometry": {"type": "Point", "coordinates": [16.7166587, 42.9555483]}, "properties": {"id": 213, "osm_type": "way", "osm_id": 262809542}}, {"type": "Feature", "id": 214, "geometry": {"type": "Point", "coordinates": [18.7671086, 44.7273301]}, "properties": {"id": 214, "osm_type": "way", "osm_id": 263435953}}, {"type": "Feature", "id": 215, "geometry": {"type": "Point", "coordinates": [13.5731338, 45.5280867]}, "properties": {"id": 215, "osm_type": "way", "osm_id": 263967387}}, {"type": "Feature", "id": 216, "geometry": {"type": "Point", "coordinates": [18.8805312, 44.7040621]}, "properties": {"id": 216, "osm_type": "way", "osm_id": 266743859}}, {"type": "Feature", "id": 217, "geometry": {"type": "Point", "coordinates": [16.0323877, 45.8217501]}, "properties": {"id": 217, "osm_type": "way", "osm_id": 268741653}}, {"type": "Feature", "id": 218, "geometry": {"type": "Point", "coordinates": [18.7326105, 44.6664998]}, "properties": {"id": 218, "osm_type": "way", "osm_id": 268745184}}, {"type": "Feature", "id": 219, "geometry": {"type": "Point", "coordinates": [16.3921491, 46.3836762]}, "properties": {"id": 219, "osm_type": "way", "osm_id": 269210003, "name": "SRC Trate"}}, {"type": "Feature", "id": 220, "geometry": {"type": "Point", "coordinates": [18.7542641, 44.7385564]}, "properties": {"id": 220, "osm_type": "way", "osm_id": 270716855, "name": "Školsko Igralište"}}, {"type": "Feature", "id": 221, "geometry": {"type": "Point", "coordinates": [19.1029882, 42.554066]}, "properties": {"id": 221, "osm_type": "way", "osm_id": 273450355, "name": "Braća Velašević Stadium"}}, {"type": "Feature", "id": 222, "geometry": {"type": "Point", "coordinates": [17.0650661, 44.9143021]}, "properties": {"id": 222, "osm_type": "way", "osm_id": 273477754, "name": "FK Sloga"}}, {"type": "Feature", "id": 223, "geometry": {"type": "Point", "coordinates": [18.7734571, 44.7757991]}, "properties": {"id": 223, "osm_type": "way", "osm_id": 273589933, "name": "Školsko igralište"}}, {"type": "Feature", "id": 224, "geometry": {"type": "Point", "coordinates": [18.6996757, 44.6856285]}, "properties": {"id": 224, "osm_type": "way", "osm_id": 273617693, "name": "Školsko igralište"}}, {"type": "Feature", "id": 225, "geometry": {"type": "Point", "coordinates": [16.3417723, 46.3136289]}, "properties": {"id": 225, "osm_type": "way", "osm_id": 277798333, "name": "SC Sloboda"}}, {"type": "Feature", "id": 226, "geometry": {"type": "Point", "coordinates": [19.3257986, 42.3609628]}, "properties": {"id": 226, "osm_type": "way", "osm_id": 282543253, "name": "Stadion „Tuško Polje“"}}, {"type": "Feature", "id": 227, "geometry": {"type": "Point", "coordinates": [16.344382, 46.2934024]}, "properties": {"id": 227, "osm_type": "way", "osm_id": 284255001, "name": "Stadion Anđelko Herjavec"}}, {"type": "Feature", "id": 228, "geometry": {"type": "Point", "coordinates": [18.0931837, 44.5425598]}, "properties": {"id": 228, "osm_type": "way", "osm_id": 284377400, "name": "Stadion"}}, {"type": "Feature", "id": 229, "geometry": {"type": "Point", "coordinates": [19.3276725, 44.1855836]}, "properties": {"id": 229, "osm_type": "way", "osm_id": 284803540, "name": "Gradski stadion Bratunac"}}, {"type": "Feature", "id": 230, "geometry": {"type": "Point", "coordinates": [18.6795883, 44.6930215]}, "properties": {"id": 230, "osm_type": "way", "osm_id": 285255456}}, {"type": "Feature", "id": 231, "geometry": {"type": "Point", "coordinates": [18.8059905, 44.7672763]}, "properties": {"id": 231, "osm_type": "way", "osm_id": 289953751}}, {"type": "Feature", "id": 232, "geometry": {"type": "Point", "coordinates": [18.7636367, 44.6695087]}, "properties": {"id": 232, "osm_type": "way", "osm_id": 290603111}}, {"type": "Feature", "id": 233, "geometry": {"type": "Point", "coordinates": [18.7621813, 44.6697523]}, "properties": {"id": 233, "osm_type": "way", "osm_id": 292008387}}, {"type": "Feature", "id": 234, "geometry": {"type": "Point", "coordinates": [19.3733925, 43.6213783]}, "properties": {"id": 234, "osm_type": "way", "osm_id": 292316811}}, {"type": "Feature", "id": 235, "geometry": {"type": "Point", "coordinates": [15.8961303, 43.7437863]}, "properties": {"id": 235, "osm_type": "way", "osm_id": 294773812, "name": "Stadion Šubićevac"}}, {"type": "Feature", "id": 236, "geometry": {"type": "Point", "coordinates": [18.0218467, 45.1501792]}, "properties": {"id": 236, "osm_type": "way", "osm_id": 294774454, "name": "Stadion uz Savu"}}, {"type": "Feature", "id": 237, "geometry": {"type": "Point", "coordinates": [13.6012183, 46.5688388]}, "properties": {"id": 237, "osm_type": "way", "osm_id": 294804016, "name": "Natursprunganlage Achomitz"}}, {"type": "Feature", "id": 238, "geometry": {"type": "Point", "coordinates": [15.2468163, 44.1126828]}, "properties": {"id": 238, "osm_type": "way", "osm_id": 296095913, "name": "Stanovi"}}, {"type": "Feature", "id": 239, "geometry": {"type": "Point", "coordinates": [17.2150697, 43.4495342]}, "properties": {"id": 239, "osm_type": "way", "osm_id": 296097926, "name": "Stadion Gospin dolac"}}, {"type": "Feature", "id": 240, "geometry": {"type": "Point", "coordinates": [15.8678198, 45.7604914]}, "properties": {"id": 240, "osm_type": "way", "osm_id": 296100147, "name": "Stadion Lučko"}}, {"type": "Feature", "id": 241, "geometry": {"type": "Point", "coordinates": [15.7094931, 45.8110158]}, "properties": {"id": 241, "osm_type": "way", "osm_id": 296106955, "name": "Gradski stadion"}}, {"type": "Feature", "id": 242, "geometry": {"type": "Point", "coordinates": [18.6931162, 45.076374]}, "properties": {"id": 242, "osm_type": "way", "osm_id": 296151779, "name": "Spomen stadion prve nogometne lopte"}}, {"type": "Feature", "id": 243, "geometry": {"type": "Point", "coordinates": [15.2321904, 44.8702247]}, "properties": {"id": 243, "osm_type": "way", "osm_id": 296154117, "name": "Gradski stadion"}}, {"type": "Feature", "id": 244, "geometry": {"type": "Point", "coordinates": [16.8532174, 45.9075044]}, "properties": {"id": 244, "osm_type": "way", "osm_id": 296154551, "name": "Stari stadion Bjelovar"}}, {"type": "Feature", "id": 245, "geometry": {"type": "Point", "coordinates": [18.8741265, 45.5193683]}, "properties": {"id": 245, "osm_type": "way", "osm_id": 296174776, "name": "Igralište BSK"}}, {"type": "Feature", "id": 246, "geometry": {"type": "Point", "coordinates": [15.6697657, 45.705038]}, "properties": {"id": 246, "osm_type": "way", "osm_id": 296178851, "name": "Igralište Mladina"}}, {"type": "Feature", "id": 247, "geometry": {"type": "Point", "coordinates": [16.1980391, 44.0336077]}, "properties": {"id": 247, "osm_type": "way", "osm_id": 296183516, "name": "Podno tvrđave"}}, {"type": "Feature", "id": 248, "geometry": {"type": "Point", "coordinates": [17.7482993, 45.1635204]}, "properties": {"id": 248, "osm_type": "way", "osm_id": 296190969, "name": "NK Oriolik"}}, {"type": "Feature", "id": 249, "geometry": {"type": "Point", "coordinates": [16.4457789, 46.5142565]}, "properties": {"id": 249, "osm_type": "way", "osm_id": 296191872, "name": "Šuderka"}}, {"type": "Feature", "id": 250, "geometry": {"type": "Point", "coordinates": [13.6669091, 45.4104895]}, "properties": {"id": 250, "osm_type": "way", "osm_id": 296199052, "name": "Gradski stadion"}}, {"type": "Feature", "id": 251, "geometry": {"type": "Point", "coordinates": [14.6954847, 45.1765831]}, "properties": {"id": 251, "osm_type": "way", "osm_id": 296273804, "name": "Gradski stadion"}}, {"type": "Feature", "id": 252, "geometry": {"type": "Point", "coordinates": [14.5643337, 45.0278053]}, "properties": {"id": 252, "osm_type": "way", "osm_id": 296308048, "name": "SRC Josip Uravić - Pepi"}}, {"type": "Feature", "id": 253, "geometry": {"type": "Point", "coordinates": [14.5898178, 45.2858673]}, "properties": {"id": 253, "osm_type": "way", "osm_id": 296309940, "name": "Lonja"}}, {"type": "Feature", "id": 254, "geometry": {"type": "Point", "coordinates": [18.8990621, 45.1437397]}, "properties": {"id": 254, "osm_type": "way", "osm_id": 296324946, "name": "Igralište Otok"}}, {"type": "Feature", "id": 255, "geometry": {"type": "Point", "coordinates": [18.0916214, 45.4857217]}, "properties": {"id": 255, "osm_type": "way", "osm_id": 296325265, "name": "NK NAŠK"}}, {"type": "Feature", "id": 256, "geometry": {"type": "Point", "coordinates": [16.4109894, 45.8883636]}, "properties": {"id": 256, "osm_type": "way", "osm_id": 296409030, "name": "Sajmište"}}, {"type": "Feature", "id": 257, "geometry": {"type": "Point", "coordinates": [16.8139093, 46.3481788]}, "properties": {"id": 257, "osm_type": "way", "osm_id": 296424352, "name": "Sportski park"}}, {"type": "Feature", "id": 258, "geometry": {"type": "Point", "coordinates": [16.3979008, 46.2797646]}, "properties": {"id": 258, "osm_type": "way", "osm_id": 300464124}}, {"type": "Feature", "id": 259, "geometry": {"type": "Point", "coordinates": [18.8211151, 44.7517806]}, "properties": {"id": 259, "osm_type": "way", "osm_id": 301861987}}, {"type": "Feature", "id": 260, "geometry": {"type": "Point", "coordinates": [15.9930719, 45.011214]}, "properties": {"id": 260, "osm_type": "way", "osm_id": 301989785}}, {"type": "Feature", "id": 261, "geometry": {"type": "Point", "coordinates": [15.6237301, 46.2427687]}, "properties": {"id": 261, "osm_type": "way", "osm_id": 302587885}}, {"type": "Feature", "id": 262, "geometry": {"type": "Point", "coordinates": [14.8552548, 45.6362825]}, "properties": {"id": 262, "osm_type": "way", "osm_id": 305226830, "name": "Stadion Kočevje"}}, {"type": "Feature", "id": 263, "geometry": {"type": "Point", "coordinates": [14.8426688, 46.4682725]}, "properties": {"id": 263, "osm_type": "way", "osm_id": 305435317, "name": "Stadion NK Peca"}}, {"type": "Feature", "id": 264, "geometry": {"type": "Point", "coordinates": [18.8450127, 44.6333968]}, "properties": {"id": 264, "osm_type": "way", "osm_id": 305782318, "name": "Fudbalski stadion Majevica"}}, {"type": "Feature", "id": 265, "geometry": {"type": "Point", "coordinates": [18.8450642, 44.6324719]}, "properties": {"id": 265, "osm_type": "way", "osm_id": 305782523}}, {"type": "Feature", "id": 266, "geometry": {"type": "Point", "coordinates": [18.8342285, 45.528159]}, "properties": {"id": 266, "osm_type": "way", "osm_id": 306283943, "name": "NK Sarvaš"}}, {"type": "Feature", "id": 267, "geometry": {"type": "Point", "coordinates": [18.8346926, 45.5245735]}, "properties": {"id": 267, "osm_type": "way", "osm_id": 306283946}}, {"type": "Feature", "id": 268, "geometry": {"type": "Point", "coordinates": [18.9705942, 45.6787444]}, "properties": {"id": 268, "osm_type": "way", "osm_id": 306896939, "name": "Спортски центар „Раде Свилар”"}}, {"type": "Feature", "id": 269, "geometry": {"type": "Point", "coordinates": [18.9508081, 45.5258499]}, "properties": {"id": 269, "osm_type": "way", "osm_id": 308624722}}, {"type": "Feature", "id": 270, "geometry": {"type": "Point", "coordinates": [15.1801451, 46.0643581]}, "properties": {"id": 270, "osm_type": "way", "osm_id": 310094482}}, {"type": "Feature", "id": 271, "geometry": {"type": "Point", "coordinates": [13.9685613, 45.4113838]}, "properties": {"id": 271, "osm_type": "way", "osm_id": 315283485}}, {"type": "Feature", "id": 272, "geometry": {"type": "Point", "coordinates": [15.0027012, 46.1341732]}, "properties": {"id": 272, "osm_type": "way", "osm_id": 317142184}}, {"type": "Feature", "id": 273, "geometry": {"type": "Point", "coordinates": [18.9744374, 45.4954801]}, "properties": {"id": 273, "osm_type": "way", "osm_id": 323892609}}, {"type": "Feature", "id": 274, "geometry": {"type": "Point", "coordinates": [14.0533107, 42.610257]}, "properties": {"id": 274, "osm_type": "way", "osm_id": 324770632, "name": "Stadio Comunale Mimmo Pavone ed Alessandro Mariani"}}, {"type": "Feature", "id": 275, "geometry": {"type": "Point", "coordinates": [18.195914, 46.0688118]}, "properties": {"id": 275, "osm_type": "way", "osm_id": 327211599}}, {"type": "Feature", "id": 276, "geometry": {"type": "Point", "coordinates": [15.9357388, 44.9002887]}, "properties": {"id": 276, "osm_type": "way", "osm_id": 354844425}}, {"type": "Feature", "id": 277, "geometry": {"type": "Point", "coordinates": [17.1981934, 44.6961721]}, "properties": {"id": 277, "osm_type": "way", "osm_id": 356550538, "name": "Stadion FK Karanovac"}}, {"type": "Feature", "id": 278, "geometry": {"type": "Point", "coordinates": [14.1952679, 45.6847015]}, "properties": {"id": 278, "osm_type": "way", "osm_id": 359815689}}, {"type": "Feature", "id": 279, "geometry": {"type": "Point", "coordinates": [18.1190513, 44.1318069]}, "properties": {"id": 279, "osm_type": "way", "osm_id": 367173299, "name": "FK Rudar"}}, {"type": "Feature", "id": 280, "geometry": {"type": "Point", "coordinates": [15.9080493, 45.7252711]}, "properties": {"id": 280, "osm_type": "way", "osm_id": 368598859, "name": "NK Brezovica"}}, {"type": "Feature", "id": 281, "geometry": {"type": "Point", "coordinates": [15.5563057, 46.0743686]}, "properties": {"id": 281, "osm_type": "way", "osm_id": 369429496}}, {"type": "Feature", "id": 282, "geometry": {"type": "Point", "coordinates": [17.3314222, 43.4721411]}, "properties": {"id": 282, "osm_type": "way", "osm_id": 376378139, "name": "Školsko igralište"}}, {"type": "Feature", "id": 283, "geometry": {"type": "Point", "coordinates": [16.3638032, 45.0375843]}, "properties": {"id": 283, "osm_type": "way", "osm_id": 377086622, "name": "Stadium Mlakve - Novi Grad"}}, {"type": "Feature", "id": 284, "geometry": {"type": "Point", "coordinates": [15.2421855, 44.1199156]}, "properties": {"id": 284, "osm_type": "way", "osm_id": 380661043}}, {"type": "Feature", "id": 285, "geometry": {"type": "Point", "coordinates": [15.4875436, 45.9488651]}, "properties": {"id": 285, "osm_type": "way", "osm_id": 382534611, "name": "Stadion Matije Gubca"}}, {"type": "Feature", "id": 286, "geometry": {"type": "Point", "coordinates": [18.7981377, 43.9329599]}, "properties": {"id": 286, "osm_type": "way", "osm_id": 393052285, "name": "Bara"}}, {"type": "Feature", "id": 287, "geometry": {"type": "Point", "coordinates": [16.1661719, 46.5901662]}, "properties": {"id": 287, "osm_type": "way", "osm_id": 393172499}}, {"type": "Feature", "id": 288, "geometry": {"type": "Point", "coordinates": [15.6136651, 44.0356769]}, "properties": {"id": 288, "osm_type": "way", "osm_id": 394360882, "name": "HNK Velebit"}}, {"type": "Feature", "id": 289, "geometry": {"type": "Point", "coordinates": [15.0218271, 46.5888202]}, "properties": {"id": 289, "osm_type": "way", "osm_id": 398893477}}, {"type": "Feature", "id": 290, "geometry": {"type": "Point", "coordinates": [13.7237728, 43.2984017]}, "properties": {"id": 290, "osm_type": "way", "osm_id": 408295510, "name": "Palarisorgimento"}}, {"type": "Feature", "id": 291, "geometry": {"type": "Point", "coordinates": [15.2967532, 44.0615578]}, "properties": {"id": 291, "osm_type": "way", "osm_id": 408593238}}, {"type": "Feature", "id": 292, "geometry": {"type": "Point", "coordinates": [18.6705722, 44.5405016]}, "properties": {"id": 292, "osm_type": "way", "osm_id": 408901999}}, {"type": "Feature", "id": 293, "geometry": {"type": "Point", "coordinates": [15.9852121, 45.817164]}, "properties": {"id": 293, "osm_type": "way", "osm_id": 416906915}}, {"type": "Feature", "id": 294, "geometry": {"type": "Point", "coordinates": [18.1562642, 44.02619]}, "properties": {"id": 294, "osm_type": "way", "osm_id": 419979403, "name": "Piskavice"}}, {"type": "Feature", "id": 295, "geometry": {"type": "Point", "coordinates": [17.1789054, 43.8358759]}, "properties": {"id": 295, "osm_type": "way", "osm_id": 422861188, "name": "Dila"}}, {"type": "Feature", "id": 296, "geometry": {"type": "Point", "coordinates": [15.4271728, 46.1873329]}, "properties": {"id": 296, "osm_type": "way", "osm_id": 422973978}}, {"type": "Feature", "id": 297, "geometry": {"type": "Point", "coordinates": [18.1968749, 43.8218052]}, "properties": {"id": 297, "osm_type": "way", "osm_id": 428541202, "name": "Training ground FK Radnik Hadžići"}}, {"type": "Feature", "id": 298, "geometry": {"type": "Point", "coordinates": [18.940778, 44.1850685]}, "properties": {"id": 298, "osm_type": "way", "osm_id": 444240803, "name": "FK Vlasenica"}}, {"type": "Feature", "id": 299, "geometry": {"type": "Point", "coordinates": [18.2661545, 44.0217904]}, "properties": {"id": 299, "osm_type": "way", "osm_id": 445006543, "name": "Gradski Stadion Breza \"FK Rudar\""}}, {"type": "Feature", "id": 300, "geometry": {"type": "Point", "coordinates": [19.0705283, 44.1636417]}, "properties": {"id": 300, "osm_type": "way", "osm_id": 445036377}}, {"type": "Feature", "id": 301, "geometry": {"type": "Point", "coordinates": [17.8252275, 46.5748137]}, "properties": {"id": 301, "osm_type": "way", "osm_id": 448204607}}, {"type": "Feature", "id": 302, "geometry": {"type": "Point", "coordinates": [18.5764133, 45.0650406]}, "properties": {"id": 302, "osm_type": "way", "osm_id": 450024111}}, {"type": "Feature", "id": 303, "geometry": {"type": "Point", "coordinates": [17.0851155, 43.6891086]}, "properties": {"id": 303, "osm_type": "way", "osm_id": 458138521}}, {"type": "Feature", "id": 304, "geometry": {"type": "Point", "coordinates": [16.1172952, 45.8360707]}, "properties": {"id": 304, "osm_type": "way", "osm_id": 467910299, "name": "Sveti Josip Radnik"}}, {"type": "Feature", "id": 305, "geometry": {"type": "Point", "coordinates": [15.8748789, 46.4167619]}, "properties": {"id": 305, "osm_type": "way", "osm_id": 479518734, "name": "Mestni stadion Ptuj", "capacity": 3000}}, {"type": "Feature", "id": 306, "geometry": {"type": "Point", "coordinates": [14.9568719, 46.335073]}, "properties": {"id": 306, "osm_type": "way", "osm_id": 490533455}}, {"type": "Feature", "id": 307, "geometry": {"type": "Point", "coordinates": [15.0482755, 46.1527644]}, "properties": {"id": 307, "osm_type": "way", "osm_id": 491446271, "name": "Rudar"}}, {"type": "Feature", "id": 308, "geometry": {"type": "Point", "coordinates": [13.6414696, 45.9558699]}, "properties": {"id": 308, "osm_type": "way", "osm_id": 503331644, "name": "Športni park Nova Gorica"}}, {"type": "Feature", "id": 309, "geometry": {"type": "Point", "coordinates": [17.8735943, 44.6350719]}, "properties": {"id": 309, "osm_type": "way", "osm_id": 504358426}}, {"type": "Feature", "id": 310, "geometry": {"type": "Point", "coordinates": [14.3225349, 45.8088607]}, "properties": {"id": 310, "osm_type": "way", "osm_id": 504571692}}, {"type": "Feature", "id": 311, "geometry": {"type": "Point", "coordinates": [15.2559596, 45.8122676]}, "properties": {"id": 311, "osm_type": "way", "osm_id": 513066759}}, {"type": "Feature", "id": 312, "geometry": {"type": "Point", "coordinates": [18.6623174, 45.6870414]}, "properties": {"id": 312, "osm_type": "way", "osm_id": 515868165, "name": "NK Mladost"}}, {"type": "Feature", "id": 313, "geometry": {"type": "Point", "coordinates": [14.4022265, 45.347936]}, "properties": {"id": 313, "osm_type": "way", "osm_id": 519317335, "name": "Stadion Rujevica"}}, {"type": "Feature", "id": 314, "geometry": {"type": "Point", "coordinates": [17.9131569, 44.3324453]}, "properties": {"id": 314, "osm_type": "way", "osm_id": 522134296}}, {"type": "Feature", "id": 315, "geometry": {"type": "Point", "coordinates": [19.3857171, 45.2465921]}, "properties": {"id": 315, "osm_type": "way", "osm_id": 531241760, "name": "Стадион „Славко Малетин - Вава”"}}, {"type": "Feature", "id": 316, "geometry": {"type": "Point", "coordinates": [13.5450617, 43.1215682]}, "properties": {"id": 316, "osm_type": "way", "osm_id": 533991872}}, {"type": "Feature", "id": 317, "geometry": {"type": "Point", "coordinates": [17.3772734, 45.2632557]}, "properties": {"id": 317, "osm_type": "way", "osm_id": 537719115, "name": "Športsko rekreacijski centar „Ivo Petranović\""}}, {"type": "Feature", "id": 318, "geometry": {"type": "Point", "coordinates": [19.2249837, 44.7543628]}, "properties": {"id": 318, "osm_type": "way", "osm_id": 542723196, "name": "Gradski stadion Bijeljina"}}, {"type": "Feature", "id": 319, "geometry": {"type": "Point", "coordinates": [13.5627841, 43.4020125]}, "properties": {"id": 319, "osm_type": "way", "osm_id": 545073294}}, {"type": "Feature", "id": 320, "geometry": {"type": "Point", "coordinates": [19.1684773, 44.8025339]}, "properties": {"id": 320, "osm_type": "way", "osm_id": 547007190}}, {"type": "Feature", "id": 321, "geometry": {"type": "Point", "coordinates": [19.3005923, 44.8230888]}, "properties": {"id": 321, "osm_type": "way", "osm_id": 551089029, "name": "FK Kolektiv"}}, {"type": "Feature", "id": 322, "geometry": {"type": "Point", "coordinates": [13.5636442, 43.4009217]}, "properties": {"id": 322, "osm_type": "way", "osm_id": 553543085, "name": "Stadio Nicola Tubaldi"}}, {"type": "Feature", "id": 323, "geometry": {"type": "Point", "coordinates": [13.435889, 43.403245]}, "properties": {"id": 323, "osm_type": "way", "osm_id": 564466808, "name": "Campo Sportivo Montefano"}}, {"type": "Feature", "id": 324, "geometry": {"type": "Point", "coordinates": [15.9036806, 46.3698148]}, "properties": {"id": 324, "osm_type": "way", "osm_id": 579037561}}, {"type": "Feature", "id": 325, "geometry": {"type": "Point", "coordinates": [15.9541616, 45.1615608]}, "properties": {"id": 325, "osm_type": "way", "osm_id": 594717691, "name": "NK Mladost Vrnograč"}}, {"type": "Feature", "id": 326, "geometry": {"type": "Point", "coordinates": [19.2646893, 44.80984]}, "properties": {"id": 326, "osm_type": "way", "osm_id": 606762790, "name": "FK Proleter"}}, {"type": "Feature", "id": 327, "geometry": {"type": "Point", "coordinates": [13.4844511, 43.1715791]}, "properties": {"id": 327, "osm_type": "way", "osm_id": 608088228}}, {"type": "Feature", "id": 328, "geometry": {"type": "Point", "coordinates": [19.3825078, 44.7864228]}, "properties": {"id": 328, "osm_type": "way", "osm_id": 608455448}}, {"type": "Feature", "id": 329, "geometry": {"type": "Point", "coordinates": [17.9439617, 45.6906502]}, "properties": {"id": 329, "osm_type": "way", "osm_id": 608464139, "name": "NK Crnac"}}, {"type": "Feature", "id": 330, "geometry": {"type": "Point", "coordinates": [16.5459559, 46.4630188]}, "properties": {"id": 330, "osm_type": "way", "osm_id": 611988568}}, {"type": "Feature", "id": 331, "geometry": {"type": "Point", "coordinates": [16.509904, 46.4743116]}, "properties": {"id": 331, "osm_type": "way", "osm_id": 611988577}}, {"type": "Feature", "id": 332, "geometry": {"type": "Point", "coordinates": [16.5859273, 46.4447691]}, "properties": {"id": 332, "osm_type": "way", "osm_id": 611988590}}, {"type": "Feature", "id": 333, "geometry": {"type": "Point", "coordinates": [18.9099839, 44.9172328]}, "properties": {"id": 333, "osm_type": "way", "osm_id": 613635886, "name": "Borac Drenovci"}}, {"type": "Feature", "id": 334, "geometry": {"type": "Point", "coordinates": [19.1045902, 44.3833686]}, "properties": {"id": 334, "osm_type": "way", "osm_id": 617764558, "name": "Stadion FK \"DRINA\" Zvornik"}}, {"type": "Feature", "id": 335, "geometry": {"type": "Point", "coordinates": [16.5985219, 46.432041]}, "properties": {"id": 335, "osm_type": "way", "osm_id": 623834738}}, {"type": "Feature", "id": 336, "geometry": {"type": "Point", "coordinates": [18.8625504, 44.2963099]}, "properties": {"id": 336, "osm_type": "way", "osm_id": 625544407}}, {"type": "Feature", "id": 337, "geometry": {"type": "Point", "coordinates": [17.795115, 43.3452845]}, "properties": {"id": 337, "osm_type": "way", "osm_id": 630996438, "name": "Stadion pod Bijelim Brijegom"}}, {"type": "Feature", "id": 338, "geometry": {"type": "Point", "coordinates": [13.9129872, 42.8084446]}, "properties": {"id": 338, "osm_type": "way", "osm_id": 646462633, "name": "Stadio Fontanelle"}}, {"type": "Feature", "id": 339, "geometry": {"type": "Point", "coordinates": [14.2796285, 42.4219993]}, "properties": {"id": 339, "osm_type": "way", "osm_id": 650570801, "name": "Stadio Valle Anzuca"}}, {"type": "Feature", "id": 340, "geometry": {"type": "Point", "coordinates": [17.9071554, 44.2057772]}, "properties": {"id": 340, "osm_type": "way", "osm_id": 658682169, "name": "Stadion Bilino polje"}}, {"type": "Feature", "id": 341, "geometry": {"type": "Point", "coordinates": [15.6406435, 46.5626909]}, "properties": {"id": 341, "osm_type": "way", "osm_id": 663204956, "name": "Stadion Ljudski vrt", "capacity": 12700}}, {"type": "Feature", "id": 342, "geometry": {"type": "Point", "coordinates": [18.3850657, 43.8612773]}, "properties": {"id": 342, "osm_type": "way", "osm_id": 663273907}}, {"type": "Feature", "id": 343, "geometry": {"type": "Point", "coordinates": [13.8902083, 42.930459]}, "properties": {"id": 343, "osm_type": "way", "osm_id": 663499609, "name": "Stadio Riviera delle Palme"}}, {"type": "Feature", "id": 344, "geometry": {"type": "Point", "coordinates": [18.9642533, 43.6264708]}, "properties": {"id": 344, "osm_type": "way", "osm_id": 665439040, "name": "Sportski stadion \"Azot\""}}, {"type": "Feature", "id": 345, "geometry": {"type": "Point", "coordinates": [18.7997601, 44.8647544]}, "properties": {"id": 345, "osm_type": "way", "osm_id": 673004815}}, {"type": "Feature", "id": 346, "geometry": {"type": "Point", "coordinates": [18.7207046, 44.9288822]}, "properties": {"id": 346, "osm_type": "way", "osm_id": 675199139}}, {"type": "Feature", "id": 347, "geometry": {"type": "Point", "coordinates": [13.8311129, 45.5250584]}, "properties": {"id": 347, "osm_type": "way", "osm_id": 677139856}}, {"type": "Feature", "id": 348, "geometry": {"type": "Point", "coordinates": [18.6846147, 44.9398221]}, "properties": {"id": 348, "osm_type": "way", "osm_id": 679018620}}, {"type": "Feature", "id": 349, "geometry": {"type": "Point", "coordinates": [18.1308373, 44.1011955]}, "properties": {"id": 349, "osm_type": "way", "osm_id": 687316655}}, {"type": "Feature", "id": 350, "geometry": {"type": "Point", "coordinates": [15.1925706, 45.5735665]}, "properties": {"id": 350, "osm_type": "way", "osm_id": 687446412, "name": "Športna dvorana SŠ Črnomelj"}}, {"type": "Feature", "id": 351, "geometry": {"type": "Point", "coordinates": [13.6961725, 43.2339551]}, "properties": {"id": 351, "osm_type": "way", "osm_id": 693916195, "name": "Stadio Montevidoni"}}, {"type": "Feature", "id": 352, "geometry": {"type": "Point", "coordinates": [18.5743745, 45.0640798]}, "properties": {"id": 352, "osm_type": "way", "osm_id": 694264298, "name": "Srimac"}}, {"type": "Feature", "id": 353, "geometry": {"type": "Point", "coordinates": [14.545212, 45.3060963]}, "properties": {"id": 353, "osm_type": "way", "osm_id": 723855452, "name": "FK Borac Bakar"}}, {"type": "Feature", "id": 354, "geometry": {"type": "Point", "coordinates": [13.935495, 44.8147472]}, "properties": {"id": 354, "osm_type": "way", "osm_id": 736409782}}, {"type": "Feature", "id": 355, "geometry": {"type": "Point", "coordinates": [18.7632018, 44.8058024]}, "properties": {"id": 355, "osm_type": "way", "osm_id": 738334677}}, {"type": "Feature", "id": 356, "geometry": {"type": "Point", "coordinates": [13.5436784, 43.4571802]}, "properties": {"id": 356, "osm_type": "way", "osm_id": 772956314, "name": "Stadio Galileo Mancini"}}, {"type": "Feature", "id": 357, "geometry": {"type": "Point", "coordinates": [15.4075994, 43.9729622]}, "properties": {"id": 357, "osm_type": "way", "osm_id": 774939031, "name": "NK Croatia Turanj"}}, {"type": "Feature", "id": 358, "geometry": {"type": "Point", "coordinates": [18.9798034, 45.4033391]}, "properties": {"id": 358, "osm_type": "way", "osm_id": 790034421, "name": "Igralište NK Sloga"}}, {"type": "Feature", "id": 359, "geometry": {"type": "Point", "coordinates": [18.9652797, 45.3802731]}, "properties": {"id": 359, "osm_type": "way", "osm_id": 816565484, "name": "Stadion Borovo naselje"}}, {"type": "Feature", "id": 360, "geometry": {"type": "Point", "coordinates": [17.5512037, 43.19534]}, "properties": {"id": 360, "osm_type": "way", "osm_id": 816608471, "name": "Babovac"}}, {"type": "Feature", "id": 361, "geometry": {"type": "Point", "coordinates": [18.4309672, 43.7850873]}, "properties": {"id": 361, "osm_type": "way", "osm_id": 829717294}}, {"type": "Feature", "id": 362, "geometry": {"type": "Point", "coordinates": [18.5651091, 43.8183758]}, "properties": {"id": 362, "osm_type": "way", "osm_id": 832606312, "name": "Stadion FK Romanija (Vlajko Petrović)"}}, {"type": "Feature", "id": 363, "geometry": {"type": "Point", "coordinates": [18.6948962, 45.0316525]}, "properties": {"id": 363, "osm_type": "way", "osm_id": 835615598, "name": "Nogometni stadion NK Hajduk"}}, {"type": "Feature", "id": 364, "geometry": {"type": "Point", "coordinates": [17.2737385, 43.9979963]}, "properties": {"id": 364, "osm_type": "way", "osm_id": 835621334}}, {"type": "Feature", "id": 365, "geometry": {"type": "Point", "coordinates": [14.4407559, 42.3019915]}, "properties": {"id": 365, "osm_type": "way", "osm_id": 854849677, "name": "Campo Sportivo \"Tommaso Verí\""}}, {"type": "Feature", "id": 366, "geometry": {"type": "Point", "coordinates": [17.2456468, 45.1230103]}, "properties": {"id": 366, "osm_type": "way", "osm_id": 854981511}}, {"type": "Feature", "id": 367, "geometry": {"type": "Point", "coordinates": [13.700732, 42.9334204]}, "properties": {"id": 367, "osm_type": "way", "osm_id": 855191450, "name": "Stadio comunale \"Alessio Piccioni\""}}, {"type": "Feature", "id": 368, "geometry": {"type": "Point", "coordinates": [18.3590739, 43.8461448]}, "properties": {"id": 368, "osm_type": "way", "osm_id": 858241884, "name": "Stadion Otoka"}}, {"type": "Feature", "id": 369, "geometry": {"type": "Point", "coordinates": [18.1169866, 44.1095344]}, "properties": {"id": 369, "osm_type": "way", "osm_id": 858372672, "name": "Stadion Mladost Kakanj"}}, {"type": "Feature", "id": 370, "geometry": {"type": "Point", "coordinates": [18.3527665, 42.7088096]}, "properties": {"id": 370, "osm_type": "way", "osm_id": 861098907, "name": "Stadion Police"}}, {"type": "Feature", "id": 371, "geometry": {"type": "Point", "coordinates": [14.6189421, 46.1220876]}, "properties": {"id": 371, "osm_type": "way", "osm_id": 865927596, "name": "Stadion Ihan"}}, {"type": "Feature", "id": 372, "geometry": {"type": "Point", "coordinates": [18.990505, 45.3550311]}, "properties": {"id": 372, "osm_type": "way", "osm_id": 866429727, "name": "Atletski stadion Vukovar"}}, {"type": "Feature", "id": 373, "geometry": {"type": "Point", "coordinates": [13.5114026, 43.5954886]}, "properties": {"id": 373, "osm_type": "way", "osm_id": 872361070, "name": "Stadio della palla ovale \"Nelson Mandela\""}}, {"type": "Feature", "id": 374, "geometry": {"type": "Point", "coordinates": [17.1740738, 44.7574828]}, "properties": {"id": 374, "osm_type": "way", "osm_id": 874658670}}, {"type": "Feature", "id": 375, "geometry": {"type": "Point", "coordinates": [18.6400244, 44.452662]}, "properties": {"id": 375, "osm_type": "way", "osm_id": 885026444}}, {"type": "Feature", "id": 376, "geometry": {"type": "Point", "coordinates": [18.6473995, 44.444006]}, "properties": {"id": 376, "osm_type": "way", "osm_id": 886121764}}, {"type": "Feature", "id": 377, "geometry": {"type": "Point", "coordinates": [18.3465501, 43.8989029]}, "properties": {"id": 377, "osm_type": "way", "osm_id": 887549223, "name": "Stadion Hakija Mršo"}}, {"type": "Feature", "id": 378, "geometry": {"type": "Point", "coordinates": [19.2406849, 42.3286143]}, "properties": {"id": 378, "osm_type": "way", "osm_id": 923891668, "name": "Stadion Trešnjica"}}, {"type": "Feature", "id": 379, "geometry": {"type": "Point", "coordinates": [17.194265, 45.4296134]}, "properties": {"id": 379, "osm_type": "way", "osm_id": 940558444, "name": "Gradski stadion Pakrac"}}, {"type": "Feature", "id": 380, "geometry": {"type": "Point", "coordinates": [15.9089603, 45.7802991]}, "properties": {"id": 380, "osm_type": "way", "osm_id": 943485650}}, {"type": "Feature", "id": 381, "geometry": {"type": "Point", "coordinates": [14.2181201, 45.6625392]}, "properties": {"id": 381, "osm_type": "way", "osm_id": 962687932}}, {"type": "Feature", "id": 382, "geometry": {"type": "Point", "coordinates": [17.8343258, 43.2725553]}, "properties": {"id": 382, "osm_type": "way", "osm_id": 968309825, "name": "Stadion Ortiješ"}}, {"type": "Feature", "id": 383, "geometry": {"type": "Point", "coordinates": [18.7052368, 42.4268361]}, "properties": {"id": 383, "osm_type": "way", "osm_id": 972807498}}, {"type": "Feature", "id": 384, "geometry": {"type": "Point", "coordinates": [16.6686141, 46.3830835]}, "properties": {"id": 384, "osm_type": "way", "osm_id": 998371346, "name": "Igralište Gaj"}}, {"type": "Feature", "id": 385, "geometry": {"type": "Point", "coordinates": [14.1373742, 42.4994395]}, "properties": {"id": 385, "osm_type": "way", "osm_id": 1000449503}}, {"type": "Feature", "id": 386, "geometry": {"type": "Point", "coordinates": [17.9491831, 43.6590051]}, "properties": {"id": 386, "osm_type": "way", "osm_id": 1012819885, "name": "Gradski stadion Konjic"}}, {"type": "Feature", "id": 387, "geometry": {"type": "Point", "coordinates": [13.8165127, 45.6287845]}, "properties": {"id": 387, "osm_type": "way", "osm_id": 1020940733, "name": "Stadio di Altura"}}, {"type": "Feature", "id": 388, "geometry": {"type": "Point", "coordinates": [15.074872, 46.1398375]}, "properties": {"id": 388, "osm_type": "way", "osm_id": 1021491552}}, {"type": "Feature", "id": 389, "geometry": {"type": "Point", "coordinates": [18.2852306, 42.7047357]}, "properties": {"id": 389, "osm_type": "way", "osm_id": 1031363099}}, {"type": "Feature", "id": 390, "geometry": {"type": "Point", "coordinates": [16.8654713, 45.8823594]}, "properties": {"id": 390, "osm_type": "way", "osm_id": 1058101715, "name": "Stadion \"Brdo\" Bjelovar"}}, {"type": "Feature", "id": 391, "geometry": {"type": "Point", "coordinates": [16.6117295, 45.7527512]}, "properties": {"id": 391, "osm_type": "way", "osm_id": 1095237217, "name": "Gradski stadion Čazma"}}, {"type": "Feature", "id": 392, "geometry": {"type": "Point", "coordinates": [15.6290892, 46.5505232]}, "properties": {"id": 392, "osm_type": "way", "osm_id": 1095328830, "name": "Atletski stadion Poljane"}}, {"type": "Feature", "id": 393, "geometry": {"type": "Point", "coordinates": [16.8997685, 44.8931338]}, "properties": {"id": 393, "osm_type": "way", "osm_id": 1106540306, "name": "Стадион ФК Омарска"}}, {"type": "Feature", "id": 394, "geometry": {"type": "Point", "coordinates": [19.0572972, 44.9178212]}, "properties": {"id": 394, "osm_type": "way", "osm_id": 1109957340, "name": "NK Strošinci"}}, {"type": "Feature", "id": 395, "geometry": {"type": "Point", "coordinates": [19.2238815, 44.723506]}, "properties": {"id": 395, "osm_type": "way", "osm_id": 1115228058}}, {"type": "Feature", "id": 396, "geometry": {"type": "Point", "coordinates": [14.6018054, 46.1369118]}, "properties": {"id": 396, "osm_type": "way", "osm_id": 1119457186, "name": "Stadion Domžale"}}, {"type": "Feature", "id": 397, "geometry": {"type": "Point", "coordinates": [18.9979644, 44.69048]}, "properties": {"id": 397, "osm_type": "way", "osm_id": 1121014133, "name": "Stadion FK \"Zvijezda 09\""}}, {"type": "Feature", "id": 398, "geometry": {"type": "Point", "coordinates": [18.4492802, 45.0757349]}, "properties": {"id": 398, "osm_type": "way", "osm_id": 1122773392}}, {"type": "Feature", "id": 399, "geometry": {"type": "Point", "coordinates": [18.4494634, 45.0756738]}, "properties": {"id": 399, "osm_type": "way", "osm_id": 1122773393}}, {"type": "Feature", "id": 400, "geometry": {"type": "Point", "coordinates": [18.4091844, 45.6839655]}, "properties": {"id": 400, "osm_type": "way", "osm_id": 1122864306, "name": "Gradski stadion Belišće"}}, {"type": "Feature", "id": 401, "geometry": {"type": "Point", "coordinates": [17.8809944, 43.263622]}, "properties": {"id": 401, "osm_type": "way", "osm_id": 1123960965, "name": "FK Blagaj"}}, {"type": "Feature", "id": 402, "geometry": {"type": "Point", "coordinates": [15.943651, 45.7712111]}, "properties": {"id": 402, "osm_type": "way", "osm_id": 1125935971, "name": "Arena Zagreb"}}, {"type": "Feature", "id": 403, "geometry": {"type": "Point", "coordinates": [15.9040307, 46.3701027]}, "properties": {"id": 403, "osm_type": "way", "osm_id": 1135911093}}, {"type": "Feature", "id": 404, "geometry": {"type": "Point", "coordinates": [16.5471843, 46.4623282]}, "properties": {"id": 404, "osm_type": "way", "osm_id": 1154145471}}, {"type": "Feature", "id": 405, "geometry": {"type": "Point", "coordinates": [15.9840933, 45.7978783]}, "properties": {"id": 405, "osm_type": "way", "osm_id": 1182216723, "name": "Stadion NK Trnje"}}, {"type": "Feature", "id": 406, "geometry": {"type": "Point", "coordinates": [18.6578325, 45.5665226]}, "properties": {"id": 406, "osm_type": "way", "osm_id": 1196519747, "name": "Opus Arena"}}, {"type": "Feature", "id": 407, "geometry": {"type": "Point", "coordinates": [13.516884, 45.8257825]}, "properties": {"id": 407, "osm_type": "way", "osm_id": 1197968026, "name": "Renzo Stadium"}}, {"type": "Feature", "id": 408, "geometry": {"type": "Point", "coordinates": [15.9257103, 45.8092005]}, "properties": {"id": 408, "osm_type": "way", "osm_id": 1226242461, "name": "Nogometni klub Kustošija"}}, {"type": "Feature", "id": 409, "geometry": {"type": "Point", "coordinates": [15.9414356, 45.7953464]}, "properties": {"id": 409, "osm_type": "way", "osm_id": 1228641768, "name": "Graba"}}, {"type": "Feature", "id": 410, "geometry": {"type": "Point", "coordinates": [17.1987176, 44.6957692]}, "properties": {"id": 410, "osm_type": "way", "osm_id": 1235429921, "name": "FK Karanovac"}}, {"type": "Feature", "id": 411, "geometry": {"type": "Point", "coordinates": [17.5282662, 44.1942147]}, "properties": {"id": 411, "osm_type": "way", "osm_id": 1235654349}}, {"type": "Feature", "id": 412, "geometry": {"type": "Point", "coordinates": [19.2305568, 44.5391976]}, "properties": {"id": 412, "osm_type": "way", "osm_id": 1250756948, "name": "Стадион Лагатор"}}, {"type": "Feature", "id": 413, "geometry": {"type": "Point", "coordinates": [15.875782, 46.4167488]}, "properties": {"id": 413, "osm_type": "way", "osm_id": 1253008242, "name": "Mestni stadion Ptuj"}}, {"type": "Feature", "id": 414, "geometry": {"type": "Point", "coordinates": [17.3804249, 45.2845961]}, "properties": {"id": 414, "osm_type": "way", "osm_id": 1269287441, "name": "NK Mladost Cernik"}}, {"type": "Feature", "id": 415, "geometry": {"type": "Point", "coordinates": [16.4723121, 46.4626507]}, "properties": {"id": 415, "osm_type": "way", "osm_id": 1301628810}}, {"type": "Feature", "id": 416, "geometry": {"type": "Point", "coordinates": [19.2938935, 43.7849887]}, "properties": {"id": 416, "osm_type": "way", "osm_id": 1305718641}}, {"type": "Feature", "id": 417, "geometry": {"type": "Point", "coordinates": [19.217555, 42.4121846]}, "properties": {"id": 417, "osm_type": "way", "osm_id": 1333271563, "name": "OFK Mladost 1970 Lješkopolje"}}, {"type": "Feature", "id": 418, "geometry": {"type": "Point", "coordinates": [18.5872267, 44.1292651]}, "properties": {"id": 418, "osm_type": "way", "osm_id": 1337568781, "name": "Stadion Danac"}}, {"type": "Feature", "id": 419, "geometry": {"type": "Point", "coordinates": [16.6019058, 45.9440541]}, "properties": {"id": 419, "osm_type": "way", "osm_id": 1341616923}}, {"type": "Feature", "id": 420, "geometry": {"type": "Point", "coordinates": [16.8547578, 45.9066853]}, "properties": {"id": 420, "osm_type": "way", "osm_id": 1359077535, "name": "Gradski stadion Bjelovar"}}, {"type": "Feature", "id": 421, "geometry": {"type": "Point", "coordinates": [16.8074861, 45.9110455]}, "properties": {"id": 421, "osm_type": "way", "osm_id": 1416183881, "name": "NK Sloga \"Stadion Žir\""}}, {"type": "Feature", "id": 422, "geometry": {"type": "Point", "coordinates": [16.6459983, 44.967381]}, "properties": {"id": 422, "osm_type": "way", "osm_id": 1420703001, "name": "Rakovčani 79"}}, {"type": "Feature", "id": 423, "geometry": {"type": "Point", "coordinates": [16.6000281, 43.1866975]}, "properties": {"id": 423, "osm_type": "way", "osm_id": 1436170794}}, {"type": "Feature", "id": 424, "geometry": {"type": "Point", "coordinates": [18.6014049, 45.7659412]}, "properties": {"id": 424, "osm_type": "way", "osm_id": 1485926431, "name": "Gradski stadion Beli Manastir"}}, {"type": "Feature", "id": 425, "geometry": {"type": "Point", "coordinates": [18.9243872, 42.392603]}, "properties": {"id": 425, "osm_type": "relation", "osm_id": 2227156}}, {"type": "Feature", "id": 426, "geometry": {"type": "Point", "coordinates": [14.5241694, 46.0804567]}, "properties": {"id": 426, "osm_type": "relation", "osm_id": 2313340, "name": "Stadion Stožice"}}, {"type": "Feature", "id": 427, "geometry": {"type": "Point", "coordinates": [14.5254118, 46.0856403]}, "properties": {"id": 427, "osm_type": "relation", "osm_id": 7300884, "name": "Hipodrom Stožice"}}, {"type": "Feature", "id": 428, "geometry": {"type": "Point", "coordinates": [14.2082714, 42.443006]}, "properties": {"id": 428, "osm_type": "relation", "osm_id": 8506243, "name": "Campo San Marco"}}, {"type": "Feature", "id": 429, "geometry": {"type": "Point", "coordinates": [13.4082885, 42.3500944]}, "properties": {"id": 429, "osm_type": "relation", "osm_id": 8800197, "name": "Stadio federale Nello Mancini"}}, {"type": "Feature", "id": 430, "geometry": {"type": "Point", "coordinates": [13.4040321, 42.3564855]}, "properties": {"id": 430, "osm_type": "relation", "osm_id": 8902373, "name": "Stadio Tommaso Fattori"}}, {"type": "Feature", "id": 431, "geometry": {"type": "Point", "coordinates": [18.7355854, 44.8900995]}, "properties": {"id": 431, "osm_type": "relation", "osm_id": 9349739, "name": "Stadion Mladi Zadrugar"}}, {"type": "Feature", "id": 432, "geometry": {"type": "Point", "coordinates": [18.7898793, 44.8772966]}, "properties": {"id": 432, "osm_type": "relation", "osm_id": 9349904}}, {"type": "Feature", "id": 433, "geometry": {"type": "Point", "coordinates": [13.5938617, 42.86096]}, "properties": {"id": 433, "osm_type": "relation", "osm_id": 9466996, "name": "Stadio Cino e Lillo Del Duca"}}, {"type": "Feature", "id": 434, "geometry": {"type": "Point", "coordinates": [13.4103319, 42.351072]}, "properties": {"id": 434, "osm_type": "relation", "osm_id": 9574621, "name": "Stadio Gran Sasso d'Italia-Italo Acconcia"}}, {"type": "Feature", "id": 435, "geometry": {"type": "Point", "coordinates": [13.584077, 42.8526999]}, "properties": {"id": 435, "osm_type": "relation", "osm_id": 10668701, "name": "Campo \"Ferruccio Corradino Squarcia\""}}, {"type": "Feature", "id": 436, "geometry": {"type": "Point", "coordinates": [18.1434066, 44.9363418]}, "properties": {"id": 436, "osm_type": "relation", "osm_id": 10844763}}, {"type": "Feature", "id": 437, "geometry": {"type": "Point", "coordinates": [19.4378177, 45.3346884]}, "properties": {"id": 437, "osm_type": "relation", "osm_id": 11183474}}, {"type": "Feature", "id": 438, "geometry": {"type": "Point", "coordinates": [15.4746458, 46.0004885]}, "properties": {"id": 438, "osm_type": "relation", "osm_id": 11790271, "name": "Stadion"}}, {"type": "Feature", "id": 439, "geometry": {"type": "Point", "coordinates": [15.4715282, 46.021697]}, "properties": {"id": 439, "osm_type": "relation", "osm_id": 11790310}}, {"type": "Feature", "id": 440, "geometry": {"type": "Point", "coordinates": [13.5086904, 43.5937893]}, "properties": {"id": 440, "osm_type": "relation", "osm_id": 12094268, "name": "Campo sportivo Italico Conti"}}, {"type": "Feature", "id": 441, "geometry": {"type": "Point", "coordinates": [14.2926499, 42.3606996]}, "properties": {"id": 441, "osm_type": "relation", "osm_id": 12277727, "name": "Pattinodromo"}}, {"type": "Feature", "id": 442, "geometry": {"type": "Point", "coordinates": [13.5960274, 45.508336]}, "properties": {"id": 442, "osm_type": "relation", "osm_id": 12549835}}, {"type": "Feature", "id": 443, "geometry": {"type": "Point", "coordinates": [19.2323931, 44.7106074]}, "properties": {"id": 443, "osm_type": "relation", "osm_id": 14902795}}, {"type": "Feature", "id": 444, "geometry": {"type": "Point", "coordinates": [19.2031162, 44.7207507]}, "properties": {"id": 444, "osm_type": "relation", "osm_id": 14902796}}, {"type": "Feature", "id": 445, "geometry": {"type": "Point", "coordinates": [18.9171873, 44.8414323]}, "properties": {"id": 445, "osm_type": "relation", "osm_id": 15257477}}, {"type": "Feature", "id": 446, "geometry": {"type": "Point", "coordinates": [18.8935524, 44.8214052]}, "properties": {"id": 446, "osm_type": "relation", "osm_id": 15257679}}, {"type": "Feature", "id": 447, "geometry": {"type": "Point", "coordinates": [14.5084142, 46.0689819]}, "properties": {"id": 447, "osm_type": "relation", "osm_id": 15587053, "name": "Stadion Bežigrad"}}, {"type": "Feature", "id": 448, "geometry": {"type": "Point", "coordinates": [14.4998512, 46.0697087]}, "properties": {"id": 448, "osm_type": "relation", "osm_id": 15822689, "name": "Stadion ŽAK"}}, {"type": "Feature", "id": 449, "geometry": {"type": "Point", "coordinates": [15.1902017, 45.5664638]}, "properties": {"id": 449, "osm_type": "relation", "osm_id": 16164595}}, {"type": "Feature", "id": 450, "geometry": {"type": "Point", "coordinates": [14.208317, 46.3057896]}, "properties": {"id": 450, "osm_type": "relation", "osm_id": 17546169}}, {"type": "Feature", "id": 451, "geometry": {"type": "Point", "coordinates": [19.0678589, 43.5591426]}, "properties": {"id": 451, "osm_type": "relation", "osm_id": 18014659}}, {"type": "Feature", "id": 452, "geometry": {"type": "Point", "coordinates": [13.7391919, 43.29808]}, "properties": {"id": 452, "osm_type": "relation", "osm_id": 20207327, "name": "Stadio Comunale"}}]}