{"type": "FeatureCollection", "features": [{"type": "Feature", "id": 16131923, "geometry": {"type": "LineString", "coordinates": [[18.6395715, 45.5415439], [18.6351948, 45.5422298], [18.6247259, 45.5439351]]}, "properties": {"id": 16131923, "osm_id": 16131923, "ref": "10/28", "surface": "asphalt", "length_m": 1186, "heading_fwd": 283.0, "heading_rev": 103.0}}, {"type": "Feature", "id": 17048600, "geometry": {"type": "LineString", "coordinates": [[18.8261857, 45.458469], [18.8079987, 45.4632575], [18.8071437, 45.4634826], [18.8046443, 45.4641489], [18.8038218, 45.4643682], [18.7964061, 45.4663184]]}, "properties": {"id": 17048600, "osm_id": 17048600, "ref": "11/29", "surface": "asphalt", "length_m": 2481, "heading_fwd": 290.6, "heading_rev": 110.6}}, {"type": "Feature", "id": 23577492, "geometry": {"type": "LineString", "coordinates": [[13.9407989, 44.8939356], [13.940612, 44.8939316], [13.939367, 44.893905], [13.9389331, 44.8938957], [13.9354349, 44.8938207], [13.9347921, 44.8938069], [13.9291081, 44.8936851], [13.9283551, 44.893669], [13.9196718, 44.8934829], [13.9189908, 44.8934684], [13.9042149, 44.8931518], [13.9036223, 44.8931391], [13.9035173, 44.8931368]]}, "properties": {"id": 23577492, "osm_id": 23577492, "ref": "09/27", "surface": "asphalt", "length_m": 2938, "heading_fwd": 268.3, "heading_rev": 88.3}}, {"type": "Feature", "id": 25984459, "geometry": {"type": "LineString", "coordinates": [[13.6307822, 45.1448348], [13.6305345, 45.1421042], [13.6304729, 45.1414252], [13.6302892, 45.1393998], [13.6302511, 45.1389792], [13.6302234, 45.1386742], [13.6302128, 45.138557]]}, "properties": {"id": 25984459, "osm_id": 25984459, "ref": "18/36", "surface": "concrete", "length_m": 699, "heading_fwd": 183.7, "heading_rev": 3.7}}, {"type": "Feature", "id": 27212135, "geometry": {"type": "LineString", "coordinates": [[16.2854921, 43.5320343], [16.2855627, 43.5320753], [16.2863387, 43.5325006], [16.2940354, 43.5367576], [16.2949882, 43.5372889], [16.3005928, 43.5404191], [16.3013313, 43.5408166], [16.308992, 43.5450958]]}, "properties": {"id": 27212135, "osm_id": 27212135, "ref": "05/23", "surface": "asphalt", "length_m": 2387, "heading_fwd": 52.5, "heading_rev": 232.5}}, {"type": "Feature", "id": 28263670, "geometry": {"type": "LineString", "coordinates": [[16.6733436, 43.2790781], [16.6809548, 43.2869521], [16.6843967, 43.290549]]}, "properties": {"id": 28263670, "osm_id": 28263670, "ref": "04-22", "surface": "asphalt", "length_m": 1558, "heading_fwd": 35.0, "heading_rev": 215.0}}, {"type": "Feature", "id": 43172734, "geometry": {"type": "LineString", "coordinates": [[18.7620737, 45.2535487], [18.7552647, 45.24805]]}, "properties": {"id": 43172734, "osm_id": 43172734, "ref": "04/22", "surface": "grass", "length_m": 811, "heading_fwd": 221.1, "heading_rev": 41.1, "name": "Zračno pristanište Vinkovci - Sopot"}}, {"type": "Feature", "id": 43174086, "geometry": {"type": "LineString", "coordinates": [[18.9590097, 45.3896822], [18.9661898, 45.3832667]]}, "properties": {"id": 43174086, "osm_id": 43174086, "ref": "14/32", "surface": "grass", "length_m": 907, "heading_fwd": 141.8, "heading_rev": 321.8}}, {"type": "Feature", "id": 44503716, "geometry": {"type": "LineString", "coordinates": [[13.9093214, 44.8410966], [13.9027681, 44.8440176]]}, "properties": {"id": 44503716, "osm_id": 44503716, "ref": "12/30", "surface": "ground", "length_m": 610, "heading_fwd": 302.2, "heading_rev": 122.2}}, {"type": "Feature", "id": 74767451, "geometry": {"type": "LineString", "coordinates": [[15.7604792, 44.5649572], [15.7647981, 44.5626631], [15.780632, 44.5542516], [15.7855867, 44.5516192], [15.7881125, 44.5502772], [15.789223, 44.5496872]]}, "properties": {"id": 74767451, "osm_id": 74767451, "ref": "13/31", "surface": null, "length_m": 2841, "heading_fwd": 126.7, "heading_rev": 306.7, "name": "Udbina"}}, {"type": "Feature", "id": 82053105, "geometry": {"type": "LineString", "coordinates": [[16.6288945, 43.1822972], [16.6330565, 43.1816405], [16.6379531, 43.1808679]]}, "properties": {"id": 82053105, "osm_id": 82053105, "ref": "10-28", "surface": "grass", "length_m": 751, "heading_fwd": 102.2, "heading_rev": 282.2}}, {"type": "Feature", "id": 144886009, "geometry": {"type": "LineString", "coordinates": [[18.2821207, 42.555867], [18.2820975, 42.5558762], [18.2816421, 42.5560448], [18.2813471, 42.5561739], [18.280551, 42.5564887], [18.2741071, 42.5590366], [18.2734575, 42.5592926], [18.2727239, 42.5595899], [18.2673527, 42.5617112], [18.2661283, 42.5621959], [18.2628153, 42.5635075], [18.2610884, 42.5641911], [18.2574977, 42.5656138], [18.2566202, 42.5659637], [18.2483906, 42.5692443]]}, "properties": {"id": 144886009, "osm_id": 144886009, "ref": "11/29", "surface": "asphalt", "length_m": 3137, "heading_fwd": 298.3, "heading_rev": 118.3}}, {"type": "Feature", "id": 146037801, "geometry": {"type": "LineString", "coordinates": [[15.3412058, 44.0793933], [15.3425693, 44.0805025], [15.3574396, 44.0925958], [15.3576425, 44.0927608]]}, "properties": {"id": 146037801, "osm_id": 146037801, "ref": "04/22", "surface": "asphalt", "length_m": 1983, "heading_fwd": 41.4, "heading_rev": 221.4}}, {"type": "Feature", "id": 146037802, "geometry": {"type": "LineString", "coordinates": [[15.357434, 44.1003567], [15.3573525, 44.1004168], [15.3487928, 44.1067297], [15.3467495, 44.1082363], [15.3463605, 44.1085231], [15.3422213, 44.1115748], [15.3384601, 44.1143478], [15.3357147, 44.1163716], [15.335656, 44.1164148]]}, "properties": {"id": 146037802, "osm_id": 146037802, "ref": "13/31", "surface": "asphalt", "length_m": 2492, "heading_fwd": 315.8, "heading_rev": 135.8}}, {"type": "Feature", "id": 146419319, "geometry": {"type": "LineString", "coordinates": [[14.3919275, 44.5637276], [14.3938256, 44.5671503], [14.3952408, 44.5697019], [14.3957628, 44.5706432]]}, "properties": {"id": 146419319, "osm_id": 146419319, "ref": "02/20", "surface": "asphalt", "length_m": 827, "heading_fwd": 21.6, "heading_rev": 201.6}}, {"type": "Feature", "id": 146881571, "geometry": {"type": "LineString", "coordinates": [[15.1654731, 44.2150415], [15.1649573, 44.2138024], [15.1641548, 44.2118748], [15.1629691, 44.2090267], [15.1627295, 44.208451], [15.1621945, 44.2071658], [15.1615205, 44.2055465], [15.1612949, 44.2050132]]}, "properties": {"id": 146881571, "osm_id": 146881571, "ref": "02-20", "surface": "asphalt", "length_m": 1164, "heading_fwd": 196.6, "heading_rev": 16.6}}, {"type": "Feature", "id": 170842231, "geometry": {"type": "LineString", "coordinates": [[16.1299979, 45.6435081], [16.1188305, 45.6516751]]}, "properties": {"id": 170842231, "osm_id": 170842231, "ref": "14/32", "surface": "grass", "length_m": 1256, "heading_fwd": 316.3, "heading_rev": 136.3}}, {"type": "Feature", "id": 171961278, "geometry": {"type": "LineString", "coordinates": [[14.5614256, 45.2257126], [14.5616783, 45.2254695], [14.5667026, 45.2206347], [14.5670579, 45.2202928], [14.5715429, 45.2159766], [14.5719489, 45.2155859], [14.5789372, 45.20886], [14.580137, 45.2077051], [14.5802484, 45.2075979]]}, "properties": {"id": 171961278, "osm_id": 171961278, "ref": "14/32", "surface": "asphalt", "length_m": 2496, "heading_fwd": 143.8, "heading_rev": 323.8}}, {"type": "Feature", "id": 172330757, "geometry": {"type": "LineString", "coordinates": [[16.0824635, 45.7518863], [16.0791258, 45.7497304], [16.0790165, 45.7496571], [16.0749113, 45.746958], [16.0623171, 45.7386787], [16.0594156, 45.7367684], [16.0553596, 45.7341051], [16.0526165, 45.7322925], [16.0519638, 45.7318639]]}, "properties": {"id": 172330757, "osm_id": 172330757, "ref": "04/22", "surface": "concrete", "length_m": 3249, "heading_fwd": 226.8, "heading_rev": 46.8}}, {"type": "Feature", "id": 172400828, "geometry": {"type": "LineString", "coordinates": [[16.085005, 45.7096708], [16.0902726, 45.7186554], [16.090938, 45.7197924], [16.094347, 45.7256562]]}, "properties": {"id": 172400828, "osm_id": 172400828, "ref": "02/20", "surface": "asphalt", "length_m": 1920, "heading_fwd": 22.2, "heading_rev": 202.2}}, {"type": "Feature", "id": 172636267, "geometry": {"type": "LineString", "coordinates": [[16.5036753, 46.396181], [16.5029174, 46.3952518], [16.5022247, 46.3944025], [16.4965486, 46.3874527]]}, "properties": {"id": 172636267, "osm_id": 172636267, "ref": "03/21", "surface": "grass", "length_m": 1114, "heading_fwd": 209.4, "heading_rev": 29.4}}, {"type": "Feature", "id": 178924898, "geometry": {"type": "LineString", "coordinates": [[14.2451307, 44.6309174], [14.2370784, 44.6254177]]}, "properties": {"id": 178924898, "osm_id": 178924898, "ref": "04/22", "surface": "grass", "length_m": 883, "heading_fwd": 226.2, "heading_rev": 46.2}}, {"type": "Feature", "id": 182710929, "geometry": {"type": "LineString", "coordinates": [[15.8443064, 45.7678914], [15.8497517, 45.7669704], [15.853686, 45.766305], [15.8547845, 45.7661192], [15.8549393, 45.766093]]}, "properties": {"id": 182710929, "osm_id": 182710929, "ref": "10L/28R", "surface": "grass", "length_m": 849, "heading_fwd": 103.6, "heading_rev": 283.6, "name": "Jedriličarska"}}, {"type": "Feature", "id": 182710931, "geometry": {"type": "LineString", "coordinates": [[15.8441157, 45.767386], [15.8495843, 45.766461], [15.8547486, 45.7655875]]}, "properties": {"id": 182710931, "osm_id": 182710931, "ref": "10R/28L", "surface": "grass", "length_m": 849, "heading_fwd": 103.6, "heading_rev": 283.6, "name": "Motorna"}}, {"type": "Feature", "id": 183769252, "geometry": {"type": "LineString", "coordinates": [[15.4661797, 45.1563188], [15.4662274, 45.1563136], [15.466539, 45.1562827], [15.4687538, 45.1560629], [15.4690747, 45.1560311], [15.4759384, 45.1553499]]}, "properties": {"id": 183769252, "osm_id": 183769252, "ref": null, "surface": null, "length_m": 773, "heading_fwd": 98.0, "heading_rev": 278.0}}, {"type": "Feature", "id": 183769260, "geometry": {"type": "LineString", "coordinates": [[15.4663254, 45.1568181], [15.4663766, 45.1568128], [15.4665959, 45.1567902], [15.4666868, 45.1567808], [15.4668436, 45.1567646], [15.4688535, 45.1565572], [15.4691669, 45.1565249], [15.4760028, 45.1558195]]}, "properties": {"id": 183769260, "osm_id": 183769260, "ref": null, "surface": null, "length_m": 767, "heading_fwd": 98.3, "heading_rev": 278.3}}, {"type": "Feature", "id": 183769264, "geometry": {"type": "LineString", "coordinates": [[15.466025, 45.1558497], [15.4660753, 45.1558448], [15.4663839, 45.1558144], [15.4686713, 45.1555895], [15.4689599, 45.1555611], [15.4758741, 45.1548813]]}, "properties": {"id": 183769264, "osm_id": 183769264, "ref": null, "surface": null, "length_m": 780, "heading_fwd": 97.9, "heading_rev": 277.9}}, {"type": "Feature", "id": 184818840, "geometry": {"type": "LineString", "coordinates": [[16.3870907, 46.2871502], [16.3799008, 46.3013192], [16.3796643, 46.3017518]]}, "properties": {"id": 184818840, "osm_id": 184818840, "ref": "16/34", "surface": "asphalt", "length_m": 1721, "heading_fwd": 340.6, "heading_rev": 160.6}}, {"type": "Feature", "id": 187303529, "geometry": {"type": "LineString", "coordinates": [[16.3859242, 46.3655976], [16.387189, 46.3615679]]}, "properties": {"id": 187303529, "osm_id": 187303529, "ref": null, "surface": "grass", "length_m": 458, "heading_fwd": 167.8, "heading_rev": 347.8}}, {"type": "Feature", "id": 203657409, "geometry": {"type": "LineString", "coordinates": [[14.4937826, 45.3776617], [14.4985682, 45.3785957], [14.5033774, 45.3795264], [14.5129415, 45.3813857], [14.5132943, 45.3814515]]}, "properties": {"id": 203657409, "osm_id": 203657409, "ref": "07/25", "surface": "asphalt", "length_m": 1581, "heading_fwd": 74.5, "heading_rev": 254.5}}, {"type": "Feature", "id": 217851501, "geometry": {"type": "LineString", "coordinates": [[16.8379473, 45.8639624], [16.8340392, 45.8583914]]}, "properties": {"id": 217851501, "osm_id": 217851501, "ref": "02/20", "surface": "grass", "length_m": 689, "heading_fwd": 206.0, "heading_rev": 26.0}}, {"type": "Feature", "id": 228212015, "geometry": {"type": "LineString", "coordinates": [[15.2823509, 44.8512357], [15.2825795, 44.8510334], [15.2950017, 44.8400343]]}, "properties": {"id": 228212015, "osm_id": 228212015, "ref": "14/32", "surface": "grass", "length_m": 1596, "heading_fwd": 141.3, "heading_rev": 321.3}}, {"type": "Feature", "id": 235639323, "geometry": {"type": "LineString", "coordinates": [[16.502921, 45.825207], [16.4981496, 45.8218657], [16.497197, 45.8211893]]}, "properties": {"id": 235639323, "osm_id": 235639323, "ref": null, "surface": "grass", "length_m": 630, "heading_fwd": 224.8, "heading_rev": 44.8}}, {"type": "Feature", "id": 235657297, "geometry": {"type": "LineString", "coordinates": [[17.0344585, 45.5621354], [17.0315779, 45.5563476]]}, "properties": {"id": 235657297, "osm_id": 235657297, "ref": null, "surface": "asphalt", "length_m": 682, "heading_fwd": 199.2, "heading_rev": 19.2}}, {"type": "Feature", "id": 235662870, "geometry": {"type": "LineString", "coordinates": [[17.9935238, 45.1574709], [17.9926079, 45.1572433], [17.9863108, 45.1557026], [17.9817878, 45.1545959], [17.9797834, 45.1541055]]}, "properties": {"id": 235662870, "osm_id": 235662870, "ref": null, "surface": "grass", "length_m": 1141, "heading_fwd": 250.9, "heading_rev": 70.9}}, {"type": "Feature", "id": 244665224, "geometry": {"type": "LineString", "coordinates": [[16.8438237, 46.214462], [16.8310372, 46.2117985], [16.8307098, 46.2117348]]}, "properties": {"id": 244665224, "osm_id": 244665224, "ref": null, "surface": "grass", "length_m": 1054, "heading_fwd": 253.3, "heading_rev": 73.3}}, {"type": "Feature", "id": 244674739, "geometry": {"type": "LineString", "coordinates": [[17.2143624, 45.5833218], [17.2083282, 45.5866512], [17.2085652, 45.5868613], [17.2129748, 45.584417], [17.2145765, 45.5835292], [17.2143624, 45.5833218]]}, "properties": {"id": 244674739, "osm_id": 244674739, "ref": null, "surface": "grass", "length_m": 0, "heading_fwd": 0.0, "heading_rev": 180.0}}, {"type": "Feature", "id": 251642018, "geometry": {"type": "LineString", "coordinates": [[16.9605013, 45.7855163], [16.966636, 45.7882405], [16.9667101, 45.7882734], [16.9668705, 45.7883446]]}, "properties": {"id": 251642018, "osm_id": 251642018, "ref": null, "surface": "asphalt", "length_m": 585, "heading_fwd": 57.5, "heading_rev": 237.5}}, {"type": "Feature", "id": 301553576, "geometry": {"type": "LineString", "coordinates": [[14.3956238, 44.5710362], [14.3961137, 44.5708992], [14.3919369, 44.5633759], [14.3914438, 44.5635164], [14.391579, 44.5637543], [14.3918211, 44.5639377], [14.3919116, 44.5640582], [14.3954434, 44.5704328], [14.395479, 44.5705435], [14.3954756, 44.5707851], [14.3956238, 44.5710362]]}, "properties": {"id": 301553576, "osm_id": 301553576, "ref": null, "surface": "concrete", "length_m": 0, "heading_fwd": 0.0, "heading_rev": 180.0}}, {"type": "Feature", "id": 324758554, "geometry": {"type": "LineString", "coordinates": [[15.8597528, 46.016324], [15.8606028, 46.0091913]]}, "properties": {"id": 324758554, "osm_id": 324758554, "ref": "17/35", "surface": "grass", "length_m": 796, "heading_fwd": 175.3, "heading_rev": 355.3}}, {"type": "Feature", "id": 451335053, "geometry": {"type": "LineString", "coordinates": [[16.4815944, 45.4651879], [16.4882047, 45.4657108], [16.4914864, 45.4659704]]}, "properties": {"id": 451335053, "osm_id": 451335053, "ref": null, "surface": "grass", "length_m": 776, "heading_fwd": 83.6, "heading_rev": 263.6}}, {"type": "Feature", "id": 488833877, "geometry": {"type": "LineString", "coordinates": [[16.3402309, 45.7227343], [16.3451373, 45.7162185]]}, "properties": {"id": 488833877, "osm_id": 488833877, "ref": null, "surface": "grass", "length_m": 819, "heading_fwd": 152.3, "heading_rev": 332.3}}, {"type": "Feature", "id": 505315848, "geometry": {"type": "LineString", "coordinates": [[17.8215406, 45.3075658], [17.8214945, 45.314144]]}, "properties": {"id": 505315848, "osm_id": 505315848, "ref": null, "surface": "ground", "length_m": 731, "heading_fwd": 359.7, "heading_rev": 179.7}}, {"type": "Feature", "id": 578661660, "geometry": {"type": "LineString", "coordinates": [[18.2163895, 45.6649142], [18.2231212, 45.6630921]]}, "properties": {"id": 578661660, "osm_id": 578661660, "ref": null, "surface": "asphalt", "length_m": 561, "heading_fwd": 111.2, "heading_rev": 291.2}}, {"type": "Feature", "id": 588791923, "geometry": {"type": "LineString", "coordinates": [[15.7983327, 45.6204319], [15.7945148, 45.6172577], [15.7919431, 45.6151195]]}, "properties": {"id": 588791923, "osm_id": 588791923, "ref": "04/22", "surface": "grass", "length_m": 772, "heading_fwd": 220.1, "heading_rev": 40.1}}, {"type": "Feature", "id": 659980441, "geometry": {"type": "LineString", "coordinates": [[18.110672, 45.5545678], [18.1107726, 45.5545519], [18.1086098, 45.5486802], [18.1084998, 45.5486962], [18.110672, 45.5545678]]}, "properties": {"id": 659980441, "osm_id": 659980441, "ref": null, "surface": "gravel", "length_m": 0, "heading_fwd": 0.0, "heading_rev": 180.0}}, {"type": "Feature", "id": 672991890, "geometry": {"type": "LineString", "coordinates": [[13.9010861, 44.8438367], [13.9026082, 44.8441742], [13.9030272, 44.8442663], [13.9031904, 44.8443024], [13.9058479, 44.8448905]]}, "properties": {"id": 672991890, "osm_id": 672991890, "ref": null, "surface": "ground", "length_m": 393, "heading_fwd": 72.7, "heading_rev": 252.7}}, {"type": "Feature", "id": 847793926, "geometry": {"type": "LineString", "coordinates": [[16.6648014, 45.7523375], [16.6622462, 45.7468993]]}, "properties": {"id": 847793926, "osm_id": 847793926, "ref": "01/19", "surface": "asphalt", "length_m": 636, "heading_fwd": 198.2, "heading_rev": 18.2}}, {"type": "Feature", "id": 954654246, "geometry": {"type": "LineString", "coordinates": [[16.5989642, 46.3244533], [16.6018556, 46.3243199]]}, "properties": {"id": 954654246, "osm_id": 954654246, "ref": "09/27", "surface": "grass", "length_m": 223, "heading_fwd": 93.8, "heading_rev": 273.8}}, {"type": "Feature", "id": 1065100138, "geometry": {"type": "LineString", "coordinates": [[16.3105834, 43.5459694], [16.309864, 43.5455829], [16.308992, 43.5450958]]}, "properties": {"id": 1065100138, "osm_id": 1065100138, "ref": null, "surface": "asphalt", "length_m": 161, "heading_fwd": 232.9, "heading_rev": 52.9}}, {"type": "Feature", "id": 1151935907, "geometry": {"type": "LineString", "coordinates": [[18.7838309, 45.7308795], [18.7905623, 45.7312302], [18.7924832, 45.7313302], [18.7926464, 45.7313387]]}, "properties": {"id": 1151935907, "osm_id": 1151935907, "ref": "08/26", "surface": "asphalt", "length_m": 686, "heading_fwd": 85.7, "heading_rev": 265.7}}, {"type": "Feature", "id": 1151938024, "geometry": {"type": "LineString", "coordinates": [[16.6780508, 43.7012181], [16.672341, 43.7005514], [16.6641842, 43.6995989]]}, "properties": {"id": 1151938024, "osm_id": 1151938024, "ref": "08/26", "surface": "grass", "length_m": 1129, "heading_fwd": 260.8, "heading_rev": 80.8}}, {"type": "Feature", "id": 1236557024, "geometry": {"type": "LineString", "coordinates": [[18.1766205, 45.1784864], [18.1821411, 45.1787266], [18.1822385, 45.178356], [18.1767178, 45.1781912], [18.1766205, 45.1784864]]}, "properties": {"id": 1236557024, "osm_id": 1236557024, "ref": "08/26", "surface": null, "length_m": 0, "heading_fwd": 0.0, "heading_rev": 180.0}}, {"type": "Feature", "id": 1327380569, "geometry": {"type": "LineString", "coordinates": [[17.2804108, 45.9485037], [17.2862034, 45.9449877]]}, "properties": {"id": 1327380569, "osm_id": 1327380569, "ref": null, "surface": "grass", "length_m": 595, "heading_fwd": 131.1, "heading_rev": 311.1}}, {"type": "Feature", "id": 1327484513, "geometry": {"type": "LineString", "coordinates": [[17.5153245, 45.1752502], [17.5140782, 45.1696079]]}, "properties": {"id": 1327484513, "osm_id": 1327484513, "ref": null, "surface": null, "length_m": 635, "heading_fwd": 188.9, "heading_rev": 8.9}}, {"type": "Feature", "id": 1328160675, "geometry": {"type": "LineString", "coordinates": [[13.6081554, 45.213748], [13.6108591, 45.2196581]]}, "properties": {"id": 1328160675, "osm_id": 1328160675, "ref": "01/19", "surface": "grass", "length_m": 690, "heading_fwd": 17.9, "heading_rev": 197.9}}, {"type": "Feature", "id": 1332449729, "geometry": {"type": "LineString", "coordinates": [[17.3292649, 45.8492131], [17.324923, 45.8391083]]}, "properties": {"id": 1332449729, "osm_id": 1332449729, "ref": "01/19", "surface": "grass", "length_m": 1173, "heading_fwd": 196.7, "heading_rev": 16.7}}, {"type": "Feature", "id": 1349523425, "geometry": {"type": "LineString", "coordinates": [[18.4476723, 45.3106634], [18.4490423, 45.3105195], [18.4508616, 45.3195745], [18.4501765, 45.3197021], [18.4495134, 45.3198103], [18.4476723, 45.3106634]]}, "properties": {"id": 1349523425, "osm_id": 1349523425, "ref": null, "surface": "grass", "length_m": 0, "heading_fwd": 0.0, "heading_rev": 180.0}}, {"type": "Feature", "id": 1426287215, "geometry": {"type": "LineString", "coordinates": [[17.1745473, 45.5067068], [17.1814769, 45.5045442]]}, "properties": {"id": 1426287215, "osm_id": 1426287215, "ref": null, "surface": null, "length_m": 591, "heading_fwd": 114.0, "heading_rev": 294.0}}, {"type": "Feature", "id": 1465340734, "geometry": {"type": "LineString", "coordinates": [[16.6471824, 45.527755], [16.6443215, 45.5259606]]}, "properties": {"id": 1465340734, "osm_id": 1465340734, "ref": "05/23", "surface": "grass", "length_m": 299, "heading_fwd": 228.2, "heading_rev": 48.2}}, {"type": "Feature", "id": 1465669344, "geometry": {"type": "LineString", "coordinates": [[16.3577028, 45.6502678], [16.3612768, 45.6490441]]}, "properties": {"id": 1465669344, "osm_id": 1465669344, "ref": "01/19", "surface": "concrete", "length_m": 309, "heading_fwd": 116.1, "heading_rev": 296.1}}, {"type": "Feature", "id": 1465669345, "geometry": {"type": "LineString", "coordinates": [[16.3612768, 45.6490441], [16.3650057, 45.6477715]]}, "properties": {"id": 1465669345, "osm_id": 1465669345, "ref": "01/19", "surface": "grass", "length_m": 323, "heading_fwd": 116.0, "heading_rev": 296.0}}, {"type": "Feature", "id": 1465810969, "geometry": {"type": "LineString", "coordinates": [[16.3021145, 45.8643865], [16.3050348, 45.8593804]]}, "properties": {"id": 1465810969, "osm_id": 1465810969, "ref": "16/34", "surface": "concrete", "length_m": 601, "heading_fwd": 157.9, "heading_rev": 337.9}}, {"type": "Feature", "id": 1474765362, "geometry": {"type": "LineString", "coordinates": [[18.6394201, 45.5409633], [18.6248232, 45.5433222], [18.6244887, 45.5433764]]}, "properties": {"id": 1474765362, "osm_id": 1474765362, "ref": "10R/28L", "surface": "grass", "length_m": 1193, "heading_fwd": 283.0, "heading_rev": 103.0}}, {"type": "Feature", "id": 1485970616, "geometry": {"type": "LineString", "coordinates": [[17.851043, 45.7318231], [17.8489101, 45.7278856], [17.8488291, 45.7277362]]}, "properties": {"id": 1485970616, "osm_id": 1485970616, "ref": "02/20", "surface": "asphalt", "length_m": 486, "heading_fwd": 200.7, "heading_rev": 20.7}}, {"type": "Feature", "id": 1505018850, "geometry": {"type": "LineString", "coordinates": [[16.2695564, 45.4591076], [16.2744715, 45.4526713]]}, "properties": {"id": 1505018850, "osm_id": 1505018850, "ref": null, "surface": null, "length_m": 812, "heading_fwd": 151.8, "heading_rev": 331.8}}, {"type": "Feature", "id": 1507575609, "geometry": {"type": "LineString", "coordinates": [[18.2829658, 42.5557549], [18.282714, 42.5554102], [18.2465779, 42.5697312], [18.2468296, 42.5700758], [18.2829658, 42.5557549]]}, "properties": {"id": 1507575609, "osm_id": 1507575609, "ref": null, "surface": null, "length_m": 0, "heading_fwd": 0.0, "heading_rev": 180.0}}, {"type": "Feature", "id": 1517539114, "geometry": {"type": "LineString", "coordinates": [[17.2045259, 45.9946497], [17.2074227, 45.9990174]]}, "properties": {"id": 1517539114, "osm_id": 1517539114, "ref": null, "surface": null, "length_m": 535, "heading_fwd": 24.7, "heading_rev": 204.7}}]}