{"type": "FeatureCollection", "features": [{"type": "Feature", "geometry": {"type": "LineString", "coordinates": [[18.6395715, 45.5415439], [18.827170328264096, 45.511143774589556]]}, "properties": {"runway_id": 16131923, "runway_ref": "10/28", "heading_deg": 103.0, "heading_label": "10", "end_alt_m": 786, "length_km": 15.0, "glide_slope_deg": 3.0}}, {"type": "Feature", "geometry": {"type": "LineString", "coordinates": [[18.6247259, 45.5439351], [18.43691712049873, 45.57402781665013]]}, "properties": {"runway_id": 16131923, "runway_ref": "10/28", "heading_deg": 283.0, "heading_label": "28", "end_alt_m": 786, "length_km": 15.0, "glide_slope_deg": 3.0}}, {"type": "Feature", "geometry": {"type": "LineString", "coordinates": [[18.8261857, 45.458469], [19.006048389932804, 45.41084902749345]]}, "properties": {"runway_id": 17048600, "runway_ref": "11/29", "heading_deg": 110.6, "heading_label": "11", "end_alt_m": 786, "length_km": 15.0, "glide_slope_deg": 3.0}}, {"type": "Feature", "geometry": {"type": "LineString", "coordinates": [[18.7964061, 45.4663184], [18.616215129724967, 45.51365558147079]]}, "properties": {"runway_id": 17048600, "runway_ref": "11/29", "heading_deg": 290.6, "heading_label": "29", "end_alt_m": 786, "length_km": 15.0, "glide_slope_deg": 3.0}}, {"type": "Feature", "geometry": {"type": "LineString", "coordinates": [[13.9407989, 44.8939356], [14.131148971485818, 44.89782467639434]]}, "properties": {"runway_id": 23577492, "runway_ref": "09/27", "heading_deg": 88.3, "heading_label": "09", "end_alt_m": 786, "length_km": 15.0, "glide_slope_deg": 3.0}}, {"type": "Feature", "geometry": {"type": "LineString", "coordinates": [[13.9035173, 44.8931368], [13.713196661549944, 44.88893158022183]]}, "properties": {"runway_id": 23577492, "runway_ref": "09/27", "heading_deg": 268.3, "heading_label": "27", "end_alt_m": 786, "length_km": 15.0, "glide_slope_deg": 3.0}}, {"type": "Feature", "geometry": {"type": "LineString", "coordinates": [[13.6307822, 45.1448348], [13.643022857414312, 45.27945713641627]]}, "properties": {"runway_id": 25984459, "runway_ref": "18/36", "heading_deg": 3.7, "heading_label": "00", "end_alt_m": 786, "length_km": 15.0, "glide_slope_deg": 3.0}}, {"type": "Feature", "geometry": {"type": "LineString", "coordinates": [[13.6302128, 45.138557], [13.618031154808525, 45.003933362357664]]}, "properties": {"runway_id": 25984459, "runway_ref": "18/36", "heading_deg": 183.7, "heading_label": "18", "end_alt_m": 786, "length_km": 15.0, "glide_slope_deg": 3.0}}, {"type": "Feature", "geometry": {"type": "LineString", "coordinates": [[16.2854921, 43.5320343], [16.13804761686895, 43.449843753302]]}, "properties": {"runway_id": 27212135, "runway_ref": "05/23", "heading_deg": 232.5, "heading_label": "23", "end_alt_m": 786, "length_km": 15.0, "glide_slope_deg": 3.0}}, {"type": "Feature", "geometry": {"type": "LineString", "coordinates": [[16.308992, 43.5450958], [16.456870565879896, 43.6270963192987]]}, "properties": {"runway_id": 27212135, "runway_ref": "05/23", "heading_deg": 52.5, "heading_label": "05", "end_alt_m": 786, "length_km": 15.0, "glide_slope_deg": 3.0}}, {"type": "Feature", "geometry": {"type": "LineString", "coordinates": [[16.6733436, 43.2790781], [16.567140653888202, 43.168585642232316]]}, "properties": {"runway_id": 28263670, "runway_ref": "04-22", "heading_deg": 215.0, "heading_label": "22", "end_alt_m": 786, "length_km": 15.0, "glide_slope_deg": 3.0}}, {"type": "Feature", "geometry": {"type": "LineString", "coordinates": [[16.6843967, 43.290549], [16.79100607378449, 43.40094282965779]]}, "properties": {"runway_id": 28263670, "runway_ref": "04-22", "heading_deg": 35.0, "heading_label": "04", "end_alt_m": 786, "length_km": 15.0, "glide_slope_deg": 3.0}}, {"type": "Feature", "geometry": {"type": "LineString", "coordinates": [[18.7620737, 45.2535487], [18.88822655254296, 45.35515977460193]]}, "properties": {"runway_id": 43172734, "runway_ref": "04/22", "heading_deg": 41.1, "heading_label": "04", "end_alt_m": 786, "length_km": 15.0, "glide_slope_deg": 3.0}}, {"type": "Feature", "geometry": {"type": "LineString", "coordinates": [[18.7552647, 45.24805], [18.629574902401405, 45.14630055978067]]}, "properties": {"runway_id": 43172734, "runway_ref": "04/22", "heading_deg": 221.1, "heading_label": "22", "end_alt_m": 786, "length_km": 15.0, "glide_slope_deg": 3.0}}, {"type": "Feature", "geometry": {"type": "LineString", "coordinates": [[18.9590097, 45.3896822], [18.840076123463387, 45.495673855745274]]}, "properties": {"runway_id": 43174086, "runway_ref": "14/32", "heading_deg": 321.8, "heading_label": "32", "end_alt_m": 786, "length_km": 15.0, "glide_slope_deg": 3.0}}, {"type": "Feature", "geometry": {"type": "LineString", "coordinates": [[18.9661898, 45.3832667], [19.08466449860994, 45.277152091501]]}, "properties": {"runway_id": 43174086, "runway_ref": "14/32", "heading_deg": 141.8, "heading_label": "14", "end_alt_m": 786, "length_km": 15.0, "glide_slope_deg": 3.0}}, {"type": "Feature", "geometry": {"type": "LineString", "coordinates": [[13.9093214, 44.8410966], [14.07018327079823, 44.76918504363513]]}, "properties": {"runway_id": 44503716, "runway_ref": "12/30", "heading_deg": 122.2, "heading_label": "12", "end_alt_m": 786, "length_km": 15.0, "glide_slope_deg": 3.0}}, {"type": "Feature", "geometry": {"type": "LineString", "coordinates": [[13.9027681, 44.8440176], [13.741496604526187, 44.91570276903933]]}, "properties": {"runway_id": 44503716, "runway_ref": "12/30", "heading_deg": 302.2, "heading_label": "30", "end_alt_m": 786, "length_km": 15.0, "glide_slope_deg": 3.0}}, {"type": "Feature", "geometry": {"type": "LineString", "coordinates": [[15.7604792, 44.5649572], [15.608451310737507, 44.64546843567886]]}, "properties": {"runway_id": 74767451, "runway_ref": "13/31", "heading_deg": 306.7, "heading_label": "31", "end_alt_m": 786, "length_km": 15.0, "glide_slope_deg": 3.0}}, {"type": "Feature", "geometry": {"type": "LineString", "coordinates": [[15.789223, 44.5496872], [15.940790463122394, 44.46897490451286]]}, "properties": {"runway_id": 74767451, "runway_ref": "13/31", "heading_deg": 126.7, "heading_label": "13", "end_alt_m": 786, "length_km": 15.0, "glide_slope_deg": 3.0}}, {"type": "Feature", "geometry": {"type": "LineString", "coordinates": [[16.6288945, 43.1822972], [16.447992837428004, 43.21067698890256]]}, "properties": {"runway_id": 82053105, "runway_ref": "10-28", "heading_deg": 282.2, "heading_label": "28", "end_alt_m": 786, "length_km": 15.0, "glide_slope_deg": 3.0}}, {"type": "Feature", "geometry": {"type": "LineString", "coordinates": [[16.6379531, 43.1808679], [16.818681587255043, 43.15220337553509]]}, "properties": {"runway_id": 82053105, "runway_ref": "10-28", "heading_deg": 102.2, "heading_label": "10", "end_alt_m": 786, "length_km": 15.0, "glide_slope_deg": 3.0}}, {"type": "Feature", "geometry": {"type": "LineString", "coordinates": [[18.2821207, 42.555867], [18.443180420297242, 42.491775252596554]]}, "properties": {"runway_id": 144886009, "runway_ref": "11/29", "heading_deg": 118.3, "heading_label": "12", "end_alt_m": 786, "length_km": 15.0, "glide_slope_deg": 3.0}}, {"type": "Feature", "geometry": {"type": "LineString", "coordinates": [[18.2483906, 42.5692443], [18.08696561360965, 42.633109983239976]]}, "properties": {"runway_id": 144886009, "runway_ref": "11/29", "heading_deg": 298.3, "heading_label": "30", "end_alt_m": 786, "length_km": 15.0, "glide_slope_deg": 3.0}}, {"type": "Feature", "geometry": {"type": "LineString", "coordinates": [[15.3412058, 44.0793933], [15.217122804889721, 43.97820872521872]]}, "properties": {"runway_id": 146037801, "runway_ref": "04/22", "heading_deg": 221.4, "heading_label": "22", "end_alt_m": 786, "length_km": 15.0, "glide_slope_deg": 3.0}}, {"type": "Feature", "geometry": {"type": "LineString", "coordinates": [[15.3576425, 44.0927608], [15.482178577644117, 44.193810592093676]]}, "properties": {"runway_id": 146037801, "runway_ref": "04/22", "heading_deg": 41.4, "heading_label": "04", "end_alt_m": 786, "length_km": 15.0, "glide_slope_deg": 3.0}}, {"type": "Feature", "geometry": {"type": "LineString", "coordinates": [[15.357434, 44.1003567], [15.488255650158745, 44.00362369933832]]}, "properties": {"runway_id": 146037802, "runway_ref": "13/31", "heading_deg": 135.8, "heading_label": "14", "end_alt_m": 786, "length_km": 15.0, "glide_slope_deg": 3.0}}, {"type": "Feature", "geometry": {"type": "LineString", "coordinates": [[15.335656, 44.1164148], [15.20437012165043, 44.21299799266532]]}, "properties": {"runway_id": 146037802, "runway_ref": "13/31", "heading_deg": 315.8, "heading_label": "32", "end_alt_m": 786, "length_km": 15.0, "glide_slope_deg": 3.0}}, {"type": "Feature", "geometry": {"type": "LineString", "coordinates": [[14.3919275, 44.5637276], [14.322506607428945, 44.43824477929891]]}, "properties": {"runway_id": 146419319, "runway_ref": "02/20", "heading_deg": 201.6, "heading_label": "20", "end_alt_m": 786, "length_km": 15.0, "glide_slope_deg": 3.0}}, {"type": "Feature", "geometry": {"type": "LineString", "coordinates": [[14.3957628, 44.5706432], [14.465492095720936, 44.696083782697606]]}, "properties": {"runway_id": 146419319, "runway_ref": "02/20", "heading_deg": 21.6, "heading_label": "02", "end_alt_m": 786, "length_km": 15.0, "glide_slope_deg": 3.0}}, {"type": "Feature", "geometry": {"type": "LineString", "coordinates": [[15.1654731, 44.2150415], [15.219454695995296, 44.34428506737239]]}, "properties": {"runway_id": 146881571, "runway_ref": "02-20", "heading_deg": 16.6, "heading_label": "02", "end_alt_m": 786, "length_km": 15.0, "glide_slope_deg": 3.0}}, {"type": "Feature", "geometry": {"type": "LineString", "coordinates": [[15.1612949, 44.2050132], [15.107558869736238, 44.07574432837028]]}, "properties": {"runway_id": 146881571, "runway_ref": "02-20", "heading_deg": 196.6, "heading_label": "20", "end_alt_m": 786, "length_km": 15.0, "glide_slope_deg": 3.0}}, {"type": "Feature", "geometry": {"type": "LineString", "coordinates": [[16.1299979, 45.6435081], [16.26308512228486, 45.54591058595034]]}, "properties": {"runway_id": 170842231, "runway_ref": "14/32", "heading_deg": 136.3, "heading_label": "14", "end_alt_m": 786, "length_km": 15.0, "glide_slope_deg": 3.0}}, {"type": "Feature", "geometry": {"type": "LineString", "coordinates": [[16.1188305, 45.6516751], [15.985259596809723, 45.74911752360901]]}, "properties": {"runway_id": 170842231, "runway_ref": "14/32", "heading_deg": 316.3, "heading_label": "32", "end_alt_m": 786, "length_km": 15.0, "glide_slope_deg": 3.0}}, {"type": "Feature", "geometry": {"type": "LineString", "coordinates": [[14.5614256, 45.2257126], [14.448063713293251, 45.33450097209295]]}, "properties": {"runway_id": 171961278, "runway_ref": "14/32", "heading_deg": 323.8, "heading_label": "32", "end_alt_m": 786, "length_km": 15.0, "glide_slope_deg": 3.0}}, {"type": "Feature", "geometry": {"type": "LineString", "coordinates": [[14.5802484, 45.2075979], [14.693141171779802, 45.09869784969842]]}, "properties": {"runway_id": 171961278, "runway_ref": "14/32", "heading_deg": 143.8, "heading_label": "14", "end_alt_m": 786, "length_km": 15.0, "glide_slope_deg": 3.0}}, {"type": "Feature", "geometry": {"type": "LineString", "coordinates": [[16.0824635, 45.7518863], [16.223540487309766, 45.844208391976395]]}, "properties": {"runway_id": 172330757, "runway_ref": "04/22", "heading_deg": 46.8, "heading_label": "05", "end_alt_m": 786, "length_km": 15.0, "glide_slope_deg": 3.0}}, {"type": "Feature", "geometry": {"type": "LineString", "coordinates": [[16.0519638, 45.7318639], [15.91140346616536, 45.63936881796598]]}, "properties": {"runway_id": 172330757, "runway_ref": "04/22", "heading_deg": 226.8, "heading_label": "23", "end_alt_m": 786, "length_km": 15.0, "glide_slope_deg": 3.0}}, {"type": "Feature", "geometry": {"type": "LineString", "coordinates": [[16.085005, 45.7096708], [16.01219530429229, 45.58474365632391]]}, "properties": {"runway_id": 172400828, "runway_ref": "02/20", "heading_deg": 202.2, "heading_label": "20", "end_alt_m": 786, "length_km": 15.0, "glide_slope_deg": 3.0}}, {"type": "Feature", "geometry": {"type": "LineString", "coordinates": [[16.094347, 45.7256562], [16.167503852764348, 45.85053687552039]]}, "properties": {"runway_id": 172400828, "runway_ref": "02/20", "heading_deg": 22.2, "heading_label": "02", "end_alt_m": 786, "length_km": 15.0, "glide_slope_deg": 3.0}}, {"type": "Feature", "geometry": {"type": "LineString", "coordinates": [[16.5036753, 46.396181], [16.59987052193934, 46.51367848417246]]}, "properties": {"runway_id": 172636267, "runway_ref": "03/21", "heading_deg": 29.4, "heading_label": "03", "end_alt_m": 786, "length_km": 15.0, "glide_slope_deg": 3.0}}, {"type": "Feature", "geometry": {"type": "LineString", "coordinates": [[16.4965486, 46.3874527], [16.400782134168775, 46.26987491836837]]}, "properties": {"runway_id": 172636267, "runway_ref": "03/21", "heading_deg": 209.4, "heading_label": "21", "end_alt_m": 786, "length_km": 15.0, "glide_slope_deg": 3.0}}, {"type": "Feature", "geometry": {"type": "LineString", "coordinates": [[14.2451307, 44.6309174], [14.382122964991295, 44.724236744866346]]}, "properties": {"runway_id": 178924898, "runway_ref": "04/22", "heading_deg": 46.2, "heading_label": "05", "end_alt_m": 786, "length_km": 15.0, "glide_slope_deg": 3.0}}, {"type": "Feature", "geometry": {"type": "LineString", "coordinates": [[14.2370784, 44.6254177], [14.100539241687873, 44.53193513848313]]}, "properties": {"runway_id": 178924898, "runway_ref": "04/22", "heading_deg": 226.2, "heading_label": "23", "end_alt_m": 786, "length_km": 15.0, "glide_slope_deg": 3.0}}, {"type": "Feature", "geometry": {"type": "LineString", "coordinates": [[15.8443064, 45.7678914], [15.656257896635735, 45.7995150756141]]}, "properties": {"runway_id": 182710929, "runway_ref": "10L/28R", "heading_deg": 283.6, "heading_label": "28", "end_alt_m": 786, "length_km": 15.0, "glide_slope_deg": 3.0}}, {"type": "Feature", "geometry": {"type": "LineString", "coordinates": [[15.8549393, 45.766093], [16.042767616043015, 45.73416120185325]]}, "properties": {"runway_id": 182710929, "runway_ref": "10L/28R", "heading_deg": 103.6, "heading_label": "10", "end_alt_m": 786, "length_km": 15.0, "glide_slope_deg": 3.0}}, {"type": "Feature", "geometry": {"type": "LineString", "coordinates": [[15.8441157, 45.767386], [15.656069383452952, 45.79901107653147]]}, "properties": {"runway_id": 182710931, "runway_ref": "10R/28L", "heading_deg": 283.6, "heading_label": "28", "end_alt_m": 786, "length_km": 15.0, "glide_slope_deg": 3.0}}, {"type": "Feature", "geometry": {"type": "LineString", "coordinates": [[15.8547486, 45.7655875], [16.042574725923213, 45.73365430796626]]}, "properties": {"runway_id": 182710931, "runway_ref": "10R/28L", "heading_deg": 103.6, "heading_label": "10", "end_alt_m": 786, "length_km": 15.0, "glide_slope_deg": 3.0}}, {"type": "Feature", "geometry": {"type": "LineString", "coordinates": [[15.4661797, 45.1563188], [15.276686698436645, 45.17496155932727]]}, "properties": {"runway_id": 183769252, "runway_ref": null, "heading_deg": 278.0, "heading_label": "28", "end_alt_m": 786, "length_km": 15.0, "glide_slope_deg": 3.0}}, {"type": "Feature", "geometry": {"type": "LineString", "coordinates": [[15.4759384, 45.1553499], [15.665303195855833, 45.13639400383368]]}, "properties": {"runway_id": 183769252, "runway_ref": null, "heading_deg": 98.0, "heading_label": "10", "end_alt_m": 786, "length_km": 15.0, "glide_slope_deg": 3.0}}, {"type": "Feature", "geometry": {"type": "LineString", "coordinates": [[15.4663254, 45.1568181], [15.276975786247021, 45.17618547760944]]}, "properties": {"runway_id": 183769260, "runway_ref": null, "heading_deg": 278.3, "heading_label": "28", "end_alt_m": 786, "length_km": 15.0, "glide_slope_deg": 3.0}}, {"type": "Feature", "geometry": {"type": "LineString", "coordinates": [[15.4760028, 45.1558195], [15.665219393594452, 45.136139467413635]]}, "properties": {"runway_id": 183769260, "runway_ref": null, "heading_deg": 98.3, "heading_label": "10", "end_alt_m": 786, "length_km": 15.0, "glide_slope_deg": 3.0}}, {"type": "Feature", "geometry": {"type": "LineString", "coordinates": [[15.466025, 45.1558497], [15.27649859858851, 45.17431342838484]]}, "properties": {"runway_id": 183769264, "runway_ref": null, "heading_deg": 277.9, "heading_label": "28", "end_alt_m": 786, "length_km": 15.0, "glide_slope_deg": 3.0}}, {"type": "Feature", "geometry": {"type": "LineString", "coordinates": [[15.4758741, 45.1548813], [15.665273466548316, 45.136104322378145]]}, "properties": {"runway_id": 183769264, "runway_ref": null, "heading_deg": 97.9, "heading_label": "10", "end_alt_m": 786, "length_km": 15.0, "glide_slope_deg": 3.0}}, {"type": "Feature", "geometry": {"type": "LineString", "coordinates": [[16.3870907, 46.2871502], [16.45165246751163, 46.15986151195614]]}, "properties": {"runway_id": 184818840, "runway_ref": "16/34", "heading_deg": 160.6, "heading_label": "16", "end_alt_m": 786, "length_km": 15.0, "glide_slope_deg": 3.0}}, {"type": "Feature", "geometry": {"type": "LineString", "coordinates": [[16.3796643, 46.3017518], [16.31478445390302, 46.42900397153934]]}, "properties": {"runway_id": 184818840, "runway_ref": "16/34", "heading_deg": 340.6, "heading_label": "34", "end_alt_m": 786, "length_km": 15.0, "glide_slope_deg": 3.0}}, {"type": "Feature", "geometry": {"type": "LineString", "coordinates": [[16.3859242, 46.3655976], [16.344440046968614, 46.497431012073704]]}, "properties": {"runway_id": 187303529, "runway_ref": null, "heading_deg": 347.8, "heading_label": "35", "end_alt_m": 786, "length_km": 15.0, "glide_slope_deg": 3.0}}, {"type": "Feature", "geometry": {"type": "LineString", "coordinates": [[16.387189, 46.3615679], [16.42847036427424, 46.22971956027321]]}, "properties": {"runway_id": 187303529, "runway_ref": null, "heading_deg": 167.8, "heading_label": "17", "end_alt_m": 786, "length_km": 15.0, "glide_slope_deg": 3.0}}, {"type": "Feature", "geometry": {"type": "LineString", "coordinates": [[14.4937826, 45.3776617], [14.308808296138047, 45.341543313676524]]}, "properties": {"runway_id": 203657409, "runway_ref": "07/25", "heading_deg": 254.5, "heading_label": "25", "end_alt_m": 786, "length_km": 15.0, "glide_slope_deg": 3.0}}, {"type": "Feature", "geometry": {"type": "LineString", "coordinates": [[14.5132943, 45.3814515], [14.698516510075054, 45.41727092535796]]}, "properties": {"runway_id": 203657409, "runway_ref": "07/25", "heading_deg": 74.5, "heading_label": "07", "end_alt_m": 786, "length_km": 15.0, "glide_slope_deg": 3.0}}, {"type": "Feature", "geometry": {"type": "LineString", "coordinates": [[16.8379473, 45.8639624], [16.923169834585863, 45.98513697527339]]}, "properties": {"runway_id": 217851501, "runway_ref": "02/20", "heading_deg": 26.0, "heading_label": "03", "end_alt_m": 786, "length_km": 15.0, "glide_slope_deg": 3.0}}, {"type": "Feature", "geometry": {"type": "LineString", "coordinates": [[16.8340392, 45.8583914], [16.749195931807773, 45.73715375468464]]}, "properties": {"runway_id": 217851501, "runway_ref": "02/20", "heading_deg": 206.0, "heading_label": "21", "end_alt_m": 786, "length_km": 15.0, "glide_slope_deg": 3.0}}, {"type": "Feature", "geometry": {"type": "LineString", "coordinates": [[15.2823509, 44.8512357], [15.163185490211673, 44.95646648137054]]}, "properties": {"runway_id": 228212015, "runway_ref": "14/32", "heading_deg": 321.3, "heading_label": "32", "end_alt_m": 786, "length_km": 15.0, "glide_slope_deg": 3.0}}, {"type": "Feature", "geometry": {"type": "LineString", "coordinates": [[15.2950017, 44.8400343], [15.413709192169659, 44.73468007470576]]}, "properties": {"runway_id": 228212015, "runway_ref": "14/32", "heading_deg": 141.3, "heading_label": "14", "end_alt_m": 786, "length_km": 15.0, "glide_slope_deg": 3.0}}, {"type": "Feature", "geometry": {"type": "LineString", "coordinates": [[16.502921, 45.825207], [16.6395516475376, 45.9208520900282]]}, "properties": {"runway_id": 235639323, "runway_ref": null, "heading_deg": 44.8, "heading_label": "04", "end_alt_m": 786, "length_km": 15.0, "glide_slope_deg": 3.0}}, {"type": "Feature", "geometry": {"type": "LineString", "coordinates": [[16.497197, 45.8211893], [16.36104523101684, 45.725381939353454]]}, "properties": {"runway_id": 235639323, "runway_ref": null, "heading_deg": 224.8, "heading_label": "22", "end_alt_m": 786, "length_km": 15.0, "glide_slope_deg": 3.0}}, {"type": "Feature", "geometry": {"type": "LineString", "coordinates": [[17.0344585, 45.5621354], [17.0980090982066, 45.68950222830084]]}, "properties": {"runway_id": 235657297, "runway_ref": null, "heading_deg": 19.2, "heading_label": "02", "end_alt_m": 786, "length_km": 15.0, "glide_slope_deg": 3.0}}, {"type": "Feature", "geometry": {"type": "LineString", "coordinates": [[17.0315779, 45.5563476], [16.968321318718125, 45.42894569731394]]}, "properties": {"runway_id": 235657297, "runway_ref": null, "heading_deg": 199.2, "heading_label": "20", "end_alt_m": 786, "length_km": 15.0, "glide_slope_deg": 3.0}}, {"type": "Feature", "geometry": {"type": "LineString", "coordinates": [[17.9935238, 45.1574709], [18.17438095044237, 45.20157733912584]]}, "properties": {"runway_id": 235662870, "runway_ref": null, "heading_deg": 70.9, "heading_label": "07", "end_alt_m": 786, "length_km": 15.0, "glide_slope_deg": 3.0}}, {"type": "Feature", "geometry": {"type": "LineString", "coordinates": [[17.9797834, 45.1541055], [17.79921756672087, 45.1097140818227]]}, "properties": {"runway_id": 235662870, "runway_ref": null, "heading_deg": 250.9, "heading_label": "25", "end_alt_m": 786, "length_km": 15.0, "glide_slope_deg": 3.0}}, {"type": "Feature", "geometry": {"type": "LineString", "coordinates": [[16.8438237, 46.214462], [17.030661500373494, 46.25312516039712]]}, "properties": {"runway_id": 244665224, "runway_ref": null, "heading_deg": 73.3, "heading_label": "07", "end_alt_m": 786, "length_km": 15.0, "glide_slope_deg": 3.0}}, {"type": "Feature", "geometry": {"type": "LineString", "coordinates": [[16.8307098, 46.2117348], [16.644145177569044, 46.17276772417757]]}, "properties": {"runway_id": 244665224, "runway_ref": null, "heading_deg": 253.3, "heading_label": "25", "end_alt_m": 786, "length_km": 15.0, "glide_slope_deg": 3.0}}, {"type": "Feature", "geometry": {"type": "LineString", "coordinates": [[17.2143624, 45.5833218], [17.2143624, 45.44842355911219]]}, "properties": {"runway_id": 244674739, "runway_ref": null, "heading_deg": 180.0, "heading_label": "18", "end_alt_m": 786, "length_km": 15.0, "glide_slope_deg": 3.0}}, {"type": "Feature", "geometry": {"type": "LineString", "coordinates": [[17.2143624, 45.5833218], [17.2143624, 45.7182200408878]]}, "properties": {"runway_id": 244674739, "runway_ref": null, "heading_deg": 0.0, "heading_label": "00", "end_alt_m": 786, "length_km": 15.0, "glide_slope_deg": 3.0}}, {"type": "Feature", "geometry": {"type": "LineString", "coordinates": [[16.9605013, 45.7855163], [16.797547464152622, 45.712936942246465]]}, "properties": {"runway_id": 251642018, "runway_ref": null, "heading_deg": 237.5, "heading_label": "24", "end_alt_m": 786, "length_km": 15.0, "glide_slope_deg": 3.0}}, {"type": "Feature", "geometry": {"type": "LineString", "coordinates": [[16.9668705, 45.7883446], [17.130256839930034, 45.860691703088236]]}, "properties": {"runway_id": 251642018, "runway_ref": null, "heading_deg": 57.5, "heading_label": "06", "end_alt_m": 786, "length_km": 15.0, "glide_slope_deg": 3.0}}, {"type": "Feature", "geometry": {"type": "LineString", "coordinates": [[14.3956238, 44.5710362], [14.3956238, 44.43613795911218]]}, "properties": {"runway_id": 301553576, "runway_ref": null, "heading_deg": 180.0, "heading_label": "18", "end_alt_m": 786, "length_km": 15.0, "glide_slope_deg": 3.0}}, {"type": "Feature", "geometry": {"type": "LineString", "coordinates": [[14.3956238, 44.5710362], [14.3956238, 44.70593444088781]]}, "properties": {"runway_id": 301553576, "runway_ref": null, "heading_deg": 0.0, "heading_label": "00", "end_alt_m": 786, "length_km": 15.0, "glide_slope_deg": 3.0}}, {"type": "Feature", "geometry": {"type": "LineString", "coordinates": [[15.8597528, 46.016324], [15.8436906804297, 46.15076141150183]]}, "properties": {"runway_id": 324758554, "runway_ref": "17/35", "heading_deg": 355.3, "heading_label": "36", "end_alt_m": 786, "length_km": 15.0, "glide_slope_deg": 3.0}}, {"type": "Feature", "geometry": {"type": "LineString", "coordinates": [[15.8606028, 46.0091913], [15.876584958338311, 45.874751649703704]]}, "properties": {"runway_id": 324758554, "runway_ref": "17/35", "heading_deg": 175.3, "heading_label": "18", "end_alt_m": 786, "length_km": 15.0, "glide_slope_deg": 3.0}}, {"type": "Feature", "geometry": {"type": "LineString", "coordinates": [[16.4815944, 45.4651879], [16.290516386557275, 45.44990094305345]]}, "properties": {"runway_id": 451335053, "runway_ref": null, "heading_deg": 263.6, "heading_label": "26", "end_alt_m": 786, "length_km": 15.0, "glide_slope_deg": 3.0}}, {"type": "Feature", "geometry": {"type": "LineString", "coordinates": [[16.4914864, 45.4659704], [16.682669646998797, 45.480938606066715]]}, "properties": {"runway_id": 451335053, "runway_ref": null, "heading_deg": 83.6, "heading_label": "08", "end_alt_m": 786, "length_km": 15.0, "glide_slope_deg": 3.0}}, {"type": "Feature", "geometry": {"type": "LineString", "coordinates": [[16.3402309, 45.7227343], [16.250117200131662, 45.84210003966631]]}, "properties": {"runway_id": 488833877, "runway_ref": null, "heading_deg": 332.3, "heading_label": "33", "end_alt_m": 786, "length_km": 15.0, "glide_slope_deg": 3.0}}, {"type": "Feature", "geometry": {"type": "LineString", "coordinates": [[16.3451373, 45.7162185], [16.434856221241127, 45.59678222845624]]}, "properties": {"runway_id": 488833877, "runway_ref": null, "heading_deg": 152.3, "heading_label": "15", "end_alt_m": 786, "length_km": 15.0, "glide_slope_deg": 3.0}}, {"type": "Feature", "geometry": {"type": "LineString", "coordinates": [[17.8215406, 45.3075658], [17.82248360273421, 45.172669193315286]]}, "properties": {"runway_id": 505315848, "runway_ref": null, "heading_deg": 179.7, "heading_label": "18", "end_alt_m": 786, "length_km": 15.0, "glide_slope_deg": 3.0}}, {"type": "Feature", "geometry": {"type": "LineString", "coordinates": [[17.8214945, 45.314144], [17.820546887732117, 45.44904059888704]]}, "properties": {"runway_id": 505315848, "runway_ref": null, "heading_deg": 359.7, "heading_label": "36", "end_alt_m": 786, "length_km": 15.0, "glide_slope_deg": 3.0}}, {"type": "Feature", "geometry": {"type": "LineString", "coordinates": [[18.2163895, 45.6649142], [18.036231035619316, 45.71348778024786]]}, "properties": {"runway_id": 578661660, "runway_ref": null, "heading_deg": 291.2, "heading_label": "29", "end_alt_m": 786, "length_km": 15.0, "glide_slope_deg": 3.0}}, {"type": "Feature", "geometry": {"type": "LineString", "coordinates": [[18.2231212, 45.6630921], [18.402960545443516, 45.61423585553849]]}, "properties": {"runway_id": 578661660, "runway_ref": null, "heading_deg": 111.2, "heading_label": "11", "end_alt_m": 786, "length_km": 15.0, "glide_slope_deg": 3.0}}, {"type": "Feature", "geometry": {"type": "LineString", "coordinates": [[15.7983327, 45.6204319], [15.922732850021514, 45.72358876013964]]}, "properties": {"runway_id": 588791923, "runway_ref": "04/22", "heading_deg": 40.1, "heading_label": "04", "end_alt_m": 786, "length_km": 15.0, "glide_slope_deg": 3.0}}, {"type": "Feature", "geometry": {"type": "LineString", "coordinates": [[15.7919431, 45.6151195], [15.668011860960792, 45.51182813176225]]}, "properties": {"runway_id": 588791923, "runway_ref": "04/22", "heading_deg": 220.1, "heading_label": "22", "end_alt_m": 786, "length_km": 15.0, "glide_slope_deg": 3.0}}, {"type": "Feature", "geometry": {"type": "LineString", "coordinates": [[18.110672, 45.5545678], [18.110672, 45.41966955911219]]}, "properties": {"runway_id": 659980441, "runway_ref": null, "heading_deg": 180.0, "heading_label": "18", "end_alt_m": 786, "length_km": 15.0, "glide_slope_deg": 3.0}}, {"type": "Feature", "geometry": {"type": "LineString", "coordinates": [[18.110672, 45.5545678], [18.110672, 45.689466040887815]]}, "properties": {"runway_id": 659980441, "runway_ref": null, "heading_deg": 0.0, "heading_label": "00", "end_alt_m": 786, "length_km": 15.0, "glide_slope_deg": 3.0}}, {"type": "Feature", "geometry": {"type": "LineString", "coordinates": [[13.9010861, 44.8438367], [13.719598608666512, 44.803496622289245]]}, "properties": {"runway_id": 672991890, "runway_ref": null, "heading_deg": 252.7, "heading_label": "25", "end_alt_m": 786, "length_km": 15.0, "glide_slope_deg": 3.0}}, {"type": "Feature", "geometry": {"type": "LineString", "coordinates": [[13.9058479, 44.8448905], [14.08759215968109, 44.884942739077076]]}, "properties": {"runway_id": 672991890, "runway_ref": null, "heading_deg": 72.7, "heading_label": "07", "end_alt_m": 786, "length_km": 15.0, "glide_slope_deg": 3.0}}, {"type": "Feature", "geometry": {"type": "LineString", "coordinates": [[16.6648014, 45.7523375], [16.72517489979764, 45.88050531850985]]}, "properties": {"runway_id": 847793926, "runway_ref": "01/19", "heading_deg": 18.2, "heading_label": "02", "end_alt_m": 786, "length_km": 15.0, "glide_slope_deg": 3.0}}, {"type": "Feature", "geometry": {"type": "LineString", "coordinates": [[16.6622462, 45.7468993], [16.60215522144581, 45.618699832898585]]}, "properties": {"runway_id": 847793926, "runway_ref": "01/19", "heading_deg": 198.2, "heading_label": "20", "end_alt_m": 786, "length_km": 15.0, "glide_slope_deg": 3.0}}, {"type": "Feature", "geometry": {"type": "LineString", "coordinates": [[16.5989642, 46.3244533], [16.40402456561461, 46.333277639683246]]}, "properties": {"runway_id": 954654246, "runway_ref": "09/27", "heading_deg": 273.8, "heading_label": "27", "end_alt_m": 786, "length_km": 15.0, "glide_slope_deg": 3.0}}, {"type": "Feature", "geometry": {"type": "LineString", "coordinates": [[16.6018556, 46.3243199], [16.79673070084785, 46.315164398301924]]}, "properties": {"runway_id": 954654246, "runway_ref": "09/27", "heading_deg": 93.8, "heading_label": "09", "end_alt_m": 786, "length_km": 15.0, "glide_slope_deg": 3.0}}, {"type": "Feature", "geometry": {"type": "LineString", "coordinates": [[16.3105834, 43.5459694], [16.459149614540603, 43.627316448122436]]}, "properties": {"runway_id": 1065100138, "runway_ref": null, "heading_deg": 52.9, "heading_label": "05", "end_alt_m": 786, "length_km": 15.0, "glide_slope_deg": 3.0}}, {"type": "Feature", "geometry": {"type": "LineString", "coordinates": [[16.308992, 43.5450958], [16.160828832301384, 43.46355690790275]]}, "properties": {"runway_id": 1065100138, "runway_ref": null, "heading_deg": 232.9, "heading_label": "23", "end_alt_m": 786, "length_km": 15.0, "glide_slope_deg": 3.0}}, {"type": "Feature", "geometry": {"type": "LineString", "coordinates": [[18.7838309, 45.7308795], [18.59114679286696, 45.72067128858253]]}, "properties": {"runway_id": 1151935907, "runway_ref": "08/26", "heading_deg": 265.7, "heading_label": "27", "end_alt_m": 786, "length_km": 15.0, "glide_slope_deg": 3.0}}, {"type": "Feature", "geometry": {"type": "LineString", "coordinates": [[18.7926464, 45.7313387], [18.98540142128176, 45.74122290144696]]}, "properties": {"runway_id": 1151935907, "runway_ref": "08/26", "heading_deg": 85.7, "heading_label": "09", "end_alt_m": 786, "length_km": 15.0, "glide_slope_deg": 3.0}}, {"type": "Feature", "geometry": {"type": "LineString", "coordinates": [[16.6780508, 43.7012181], [16.862325328423, 43.722568422200254]]}, "properties": {"runway_id": 1151938024, "runway_ref": "08/26", "heading_deg": 80.8, "heading_label": "08", "end_alt_m": 786, "length_km": 15.0, "glide_slope_deg": 3.0}}, {"type": "Feature", "geometry": {"type": "LineString", "coordinates": [[16.6641842, 43.6995989], [16.48004674693964, 43.67795277077416]]}, "properties": {"runway_id": 1151938024, "runway_ref": "08/26", "heading_deg": 260.8, "heading_label": "26", "end_alt_m": 786, "length_km": 15.0, "glide_slope_deg": 3.0}}, {"type": "Feature", "geometry": {"type": "LineString", "coordinates": [[18.1766205, 45.1784864], [18.176620500000002, 45.04358815911219]]}, "properties": {"runway_id": 1236557024, "runway_ref": "08/26", "heading_deg": 180.0, "heading_label": "18", "end_alt_m": 786, "length_km": 15.0, "glide_slope_deg": 3.0}}, {"type": "Feature", "geometry": {"type": "LineString", "coordinates": [[18.1766205, 45.1784864], [18.176620500000002, 45.313384640887804]]}, "properties": {"runway_id": 1236557024, "runway_ref": "08/26", "heading_deg": 0.0, "heading_label": "00", "end_alt_m": 786, "length_km": 15.0, "glide_slope_deg": 3.0}}, {"type": "Feature", "geometry": {"type": "LineString", "coordinates": [[17.2804108, 45.9485037], [17.134013327439437, 46.037119367612114]]}, "properties": {"runway_id": 1327380569, "runway_ref": null, "heading_deg": 311.1, "heading_label": "31", "end_alt_m": 786, "length_km": 15.0, "glide_slope_deg": 3.0}}, {"type": "Feature", "geometry": {"type": "LineString", "coordinates": [[17.2862034, 45.9449877], [17.43212380813769, 45.856185712042354]]}, "properties": {"runway_id": 1327380569, "runway_ref": null, "heading_deg": 131.1, "heading_label": "13", "end_alt_m": 786, "length_km": 15.0, "glide_slope_deg": 3.0}}, {"type": "Feature", "geometry": {"type": "LineString", "coordinates": [[17.5153245, 45.1752502], [17.544838739892164, 45.30853811610241]]}, "properties": {"runway_id": 1327484513, "runway_ref": null, "heading_deg": 8.9, "heading_label": "01", "end_alt_m": 786, "length_km": 15.0, "glide_slope_deg": 3.0}}, {"type": "Feature", "geometry": {"type": "LineString", "coordinates": [[17.5140782, 45.1696079], [17.48470469966263, 45.03631241858583]]}, "properties": {"runway_id": 1327484513, "runway_ref": null, "heading_deg": 188.9, "heading_label": "19", "end_alt_m": 786, "length_km": 15.0, "glide_slope_deg": 3.0}}, {"type": "Feature", "geometry": {"type": "LineString", "coordinates": [[13.6081554, 45.213748], [13.549556246290518, 45.08533627822495]]}, "properties": {"runway_id": 1328160675, "runway_ref": "01/19", "heading_deg": 197.9, "heading_label": "20", "end_alt_m": 786, "length_km": 15.0, "glide_slope_deg": 3.0}}, {"type": "Feature", "geometry": {"type": "LineString", "coordinates": [[13.6108591, 45.2196581], [13.669729600505985, 45.34803971778264]]}, "properties": {"runway_id": 1328160675, "runway_ref": "01/19", "heading_deg": 17.9, "heading_label": "02", "end_alt_m": 786, "length_km": 15.0, "glide_slope_deg": 3.0}}, {"type": "Feature", "geometry": {"type": "LineString", "coordinates": [[17.3292649, 45.8492131], [17.384934164497956, 45.97843161223812]]}, "properties": {"runway_id": 1332449729, "runway_ref": "01/19", "heading_deg": 16.7, "heading_label": "02", "end_alt_m": 786, "length_km": 15.0, "glide_slope_deg": 3.0}}, {"type": "Feature", "geometry": {"type": "LineString", "coordinates": [[17.324923, 45.8391083], [17.269521838138974, 45.709862885225654]]}, "properties": {"runway_id": 1332449729, "runway_ref": "01/19", "heading_deg": 196.7, "heading_label": "20", "end_alt_m": 786, "length_km": 15.0, "glide_slope_deg": 3.0}}, {"type": "Feature", "geometry": {"type": "LineString", "coordinates": [[18.4476723, 45.3106634], [18.4476723, 45.175765159112196]]}, "properties": {"runway_id": 1349523425, "runway_ref": null, "heading_deg": 180.0, "heading_label": "18", "end_alt_m": 786, "length_km": 15.0, "glide_slope_deg": 3.0}}, {"type": "Feature", "geometry": {"type": "LineString", "coordinates": [[18.4476723, 45.3106634], [18.4476723, 45.44556164088781]]}, "properties": {"runway_id": 1349523425, "runway_ref": null, "heading_deg": 0.0, "heading_label": "00", "end_alt_m": 786, "length_km": 15.0, "glide_slope_deg": 3.0}}, {"type": "Feature", "geometry": {"type": "LineString", "coordinates": [[17.1745473, 45.5067068], [16.998533508534166, 45.56144148350891]]}, "properties": {"runway_id": 1426287215, "runway_ref": null, "heading_deg": 294.0, "heading_label": "29", "end_alt_m": 786, "length_km": 15.0, "glide_slope_deg": 3.0}}, {"type": "Feature", "geometry": {"type": "LineString", "coordinates": [[17.1814769, 45.5045442], [17.357141153382145, 45.44953973601497]]}, "properties": {"runway_id": 1426287215, "runway_ref": null, "heading_deg": 114.0, "heading_label": "11", "end_alt_m": 786, "length_km": 15.0, "glide_slope_deg": 3.0}}, {"type": "Feature", "geometry": {"type": "LineString", "coordinates": [[16.6471824, 45.527755], [16.790876536983866, 45.61764335996484]]}, "properties": {"runway_id": 1465340734, "runway_ref": "05/23", "heading_deg": 48.2, "heading_label": "05", "end_alt_m": 786, "length_km": 15.0, "glide_slope_deg": 3.0}}, {"type": "Feature", "geometry": {"type": "LineString", "coordinates": [[16.6443215, 45.5259606], [16.50109089407891, 45.43589266363234]]}, "properties": {"runway_id": 1465340734, "runway_ref": "05/23", "heading_deg": 228.2, "heading_label": "23", "end_alt_m": 786, "length_km": 15.0, "glide_slope_deg": 3.0}}, {"type": "Feature", "geometry": {"type": "LineString", "coordinates": [[16.3577028, 45.6502678], [16.18421152392412, 45.70947132899418]]}, "properties": {"runway_id": 1465669344, "runway_ref": "01/19", "heading_deg": 296.1, "heading_label": "30", "end_alt_m": 786, "length_km": 15.0, "glide_slope_deg": 3.0}}, {"type": "Feature", "geometry": {"type": "LineString", "coordinates": [[16.3612768, 45.6490441], [16.53439711145994, 45.58957853435289]]}, "properties": {"runway_id": 1465669344, "runway_ref": "01/19", "heading_deg": 116.1, "heading_label": "12", "end_alt_m": 786, "length_km": 15.0, "glide_slope_deg": 3.0}}, {"type": "Feature", "geometry": {"type": "LineString", "coordinates": [[16.3612768, 45.6490441], [16.18768031755312, 45.70809110307483]]}, "properties": {"runway_id": 1465669345, "runway_ref": "01/19", "heading_deg": 296.0, "heading_label": "30", "end_alt_m": 786, "length_km": 15.0, "glide_slope_deg": 3.0}}, {"type": "Feature", "geometry": {"type": "LineString", "coordinates": [[16.3650057, 45.6477715], [16.5382318249569, 45.58846214085432]]}, "properties": {"runway_id": 1465669345, "runway_ref": "01/19", "heading_deg": 116.0, "heading_label": "12", "end_alt_m": 786, "length_km": 15.0, "glide_slope_deg": 3.0}}, {"type": "Feature", "geometry": {"type": "LineString", "coordinates": [[16.3021145, 45.8643865], [16.229037131558325, 45.989341544177904]]}, "properties": {"runway_id": 1465810969, "runway_ref": "16/34", "heading_deg": 337.9, "heading_label": "34", "end_alt_m": 786, "length_km": 15.0, "glide_slope_deg": 3.0}}, {"type": "Feature", "geometry": {"type": "LineString", "coordinates": [[16.3050348, 45.8593804], [16.37777781137941, 45.734378987103575]]}, "properties": {"runway_id": 1465810969, "runway_ref": "16/34", "heading_deg": 157.9, "heading_label": "16", "end_alt_m": 786, "length_km": 15.0, "glide_slope_deg": 3.0}}, {"type": "Feature", "geometry": {"type": "LineString", "coordinates": [[18.6394201, 45.5409633], [18.82698502681154, 45.51046700290563]]}, "properties": {"runway_id": 1474765362, "runway_ref": "10R/28L", "heading_deg": 103.0, "heading_label": "10", "end_alt_m": 786, "length_km": 15.0, "glide_slope_deg": 3.0}}, {"type": "Feature", "geometry": {"type": "LineString", "coordinates": [[18.6244887, 45.5433764], [18.43671314814877, 45.573565398148936]]}, "properties": {"runway_id": 1474765362, "runway_ref": "10R/28L", "heading_deg": 283.0, "heading_label": "28", "end_alt_m": 786, "length_km": 15.0, "glide_slope_deg": 3.0}}, {"type": "Feature", "geometry": {"type": "LineString", "coordinates": [[17.851043, 45.7318231], [17.919554665489247, 45.857980651108264]]}, "properties": {"runway_id": 1485970616, "runway_ref": "02/20", "heading_deg": 20.7, "heading_label": "02", "end_alt_m": 786, "length_km": 15.0, "glide_slope_deg": 3.0}}, {"type": "Feature", "geometry": {"type": "LineString", "coordinates": [[17.8488291, 45.7277362], [17.7806312696635, 45.60153788819176]]}, "properties": {"runway_id": 1485970616, "runway_ref": "02/20", "heading_deg": 200.7, "heading_label": "20", "end_alt_m": 786, "length_km": 15.0, "glide_slope_deg": 3.0}}, {"type": "Feature", "geometry": {"type": "LineString", "coordinates": [[16.2695564, 45.4591076], [16.178546306014088, 45.5779818251062]]}, "properties": {"runway_id": 1505018850, "runway_ref": null, "heading_deg": 331.8, "heading_label": "33", "end_alt_m": 786, "length_km": 15.0, "glide_slope_deg": 3.0}}, {"type": "Feature", "geometry": {"type": "LineString", "coordinates": [[16.2744715, 45.4526713], [16.365088237953433, 45.3337251149936]]}, "properties": {"runway_id": 1505018850, "runway_ref": null, "heading_deg": 151.8, "heading_label": "15", "end_alt_m": 786, "length_km": 15.0, "glide_slope_deg": 3.0}}, {"type": "Feature", "geometry": {"type": "LineString", "coordinates": [[18.2829658, 42.5557549], [18.2829658, 42.42085665911219]]}, "properties": {"runway_id": 1507575609, "runway_ref": null, "heading_deg": 180.0, "heading_label": "18", "end_alt_m": 786, "length_km": 15.0, "glide_slope_deg": 3.0}}, {"type": "Feature", "geometry": {"type": "LineString", "coordinates": [[18.2829658, 42.5557549], [18.2829658, 42.6906531408878]]}, "properties": {"runway_id": 1507575609, "runway_ref": null, "heading_deg": 0.0, "heading_label": "00", "end_alt_m": 786, "length_km": 15.0, "glide_slope_deg": 3.0}}, {"type": "Feature", "geometry": {"type": "LineString", "coordinates": [[17.2045259, 45.9946497], [17.123453124412674, 45.872100941198745]]}, "properties": {"runway_id": 1517539114, "runway_ref": null, "heading_deg": 204.7, "heading_label": "20", "end_alt_m": 786, "length_km": 15.0, "glide_slope_deg": 3.0}}, {"type": "Feature", "geometry": {"type": "LineString", "coordinates": [[17.2074227, 45.9990174], [17.28886170843947, 46.121508576094364]]}, "properties": {"runway_id": 1517539114, "runway_ref": null, "heading_deg": 24.7, "heading_label": "02", "end_alt_m": 786, "length_km": 15.0, "glide_slope_deg": 3.0}}]}